organisation_id,name,type,street_address,city,state,postal_code,country,website,created_at,updated_at,known_as,abbreviation,stripe_onbehalfof,stripe_account_status,stripe_payouts_enabled,stripe_details_submitted,stripe_capabilities
3e893fa6-2cc2-448c-be9c-e3858cc90e11,United Grand Lodge of NSW & ACT,grandlodge,"Sydney Masonic Centre
279 Castlereagh Street",Sydney,NSW,2000,Australia,www.masons.au,2025-05-01 12:51:16.416138+00,2025-05-01 12:51:16.416138+00,Freemasons NSW & ACT,UGL NSW & ACT,acct_1Rb0lgE8F0RDorit,connected,true,true,
0ceb5559-cac7-4f52-b518-37a091cef550,United Grand Lodge of Queensland,grandlodge,,,,,,,2025-05-01 12:51:16.416138+00,2025-05-01 12:51:16.416138+00,,,,pending,false,false,
39864db0-15f8-4faa-8706-8d7c942f8017,Grand Lodge of South Australia & Northern Territory,grandlodge,,,,,,,2025-05-01 12:51:16.416138+00,2025-05-01 12:51:16.416138+00,,,,pending,false,false,
e0956d32-27ec-47ec-b21a-47ac342473a3,Grand Lodge of Western Australia,grandlodge,,,,,,,2025-05-01 12:51:16.416138+00,2025-05-01 12:51:16.416138+00,,,,pending,false,false,
316024c6-e8a7-42bc-96ab-3f9532307242,Grand Lodge of Tasmania,grandlodge,,,,,,,2025-05-01 12:51:16.416138+00,2025-05-01 12:51:16.416138+00,,,,pending,false,false,
1cbc120c-7651-4df9-b73b-77a94e8c93d6,Grand Lodge of New Zealand,grandlodge,,,,,,,2025-05-01 12:51:16.416138+00,2025-05-01 12:51:16.416138+00,,,,pending,false,false,
0ce8e42a-e50f-46f8-bcee-c5e9eb97086b,Most Worshipful Grand Lodge of Philippines,grandlodge,,,,,,,2025-05-01 12:51:16.416138+00,2025-05-01 12:51:16.416138+00,,,,pending,false,false,
ba2f613f-8392-4d24-bc32-ab9d25815af0,Most Worshipful Grand Lodge of Japan,grandlodge,,,,,,,2025-05-01 12:51:16.416138+00,2025-05-01 12:51:16.416138+00,,,,pending,false,false,
c05e862c-0ad7-4456-900a-38ddd54b9b70,Provincial Grand Lodge of New Caledonia,grandlodge,,,,,,,2025-05-01 12:51:16.416138+00,2025-05-01 12:51:16.416138+00,,,,pending,false,false,
94648869-9947-44b6-a202-40a0d2fe50ea,Grand Lodge of Quebec,grandlodge,,,,,,,2025-05-01 12:51:16.416138+00,2025-05-01 12:51:16.416138+00,,,,pending,false,false,
9eb35de9-ac57-4938-966e-d50e5bdaf297,United Grand Lodge of England,grandlodge,,,,,,,2025-05-01 12:51:16.416138+00,2025-05-01 12:51:16.416138+00,,,,pending,false,false,
e3099e8e-c195-4996-a989-c4d181ec148f,Grand Lodge of Scotland,grandlodge,,,,,,,2025-05-01 12:51:16.416138+00,2025-05-01 12:51:16.416138+00,,,,pending,false,false,
05393618-7e21-434a-b054-73d3d99b247c,Grand Lodge of Ireland,grandlodge,,,,,,,2025-05-01 12:51:16.416138+00,2025-05-01 12:51:16.416138+00,,,,pending,false,false,
88f99adf-eb30-4a5c-aac9-1dc83c159e0c,Grand Lodge of Canada in the Province of Ontario,grandlodge,,,,,,,2025-05-01 12:51:16.416138+00,2025-05-01 12:51:16.416138+00,,,,pending,false,false,
4c4d7c78-6dfe-46c6-8b94-a8be0ef6e013,Grand Lodge of British Columbia and Yukon,grandlodge,,,,,,,2025-05-01 12:51:16.416138+00,2025-05-01 12:51:16.416138+00,,,,pending,false,false,
726ada36-0777-4d21-a766-69dcc6dfd11f,Grand Lodge of Alberta,grandlodge,,,,,,,2025-05-01 12:51:16.416138+00,2025-05-01 12:51:16.416138+00,,,,pending,false,false,
930f67ef-533b-402c-86fb-b35682b69b1a,Grand Lodge of Saskatchewan,grandlodge,,,,,,,2025-05-01 12:51:16.416138+00,2025-05-01 12:51:16.416138+00,,,,pending,false,false,
66af1b27-44b5-428c-895d-84a2e82ce2cc,Grand Lodge of Manitoba,grandlodge,,,,,,,2025-05-01 12:51:16.416138+00,2025-05-01 12:51:16.416138+00,,,,pending,false,false,
5f4fc792-62c9-4e05-a843-d56fba62b2b3,Grand Lodge of Nova Scotia,grandlodge,,,,,,,2025-05-01 12:51:16.416138+00,2025-05-01 12:51:16.416138+00,,,,pending,false,false,
e84620b7-7477-49d3-81b7-8091d06d44a8,Grand Lodge of New Brunswick,grandlodge,,,,,,,2025-05-01 12:51:16.416138+00,2025-05-01 12:51:16.416138+00,,,,pending,false,false,
2f1f9af5-ab86-4707-95ad-f04b475fd62a,Grand Lodge of Prince Edward Island,grandlodge,,,,,,,2025-05-01 12:51:16.416138+00,2025-05-01 12:51:16.416138+00,,,,pending,false,false,
48e4016c-8792-473d-92c8-a24327de32fc,Grand Lodge of Newfoundland and Labrador,grandlodge,,,,,,,2025-05-01 12:51:16.416138+00,2025-05-01 12:51:16.416138+00,,,,pending,false,false,
2006ddac-33ae-496c-b21c-8714180e0e2b,Grand Lodge of California,grandlodge,,,,,,,2025-05-01 12:51:16.416138+00,2025-05-01 12:51:16.416138+00,,,,pending,false,false,
393c80b6-92ef-4b90-86f9-8c6c8b8c49cb,Grand Lodge of New York,grandlodge,,,,,,,2025-05-01 12:51:16.416138+00,2025-05-01 12:51:16.416138+00,,,,pending,false,false,
fef9cbea-1f98-4f06-8480-394eb0879a4e,Grand Lodge of Texas,grandlodge,,,,,,,2025-05-01 12:51:16.416138+00,2025-05-01 12:51:16.416138+00,,,,pending,false,false,
f2b4d8bd-531a-42eb-9c5e-6d7b35a81360,Grand Lodge of Pennsylvania,grandlodge,,,,,,,2025-05-01 12:51:16.416138+00,2025-05-01 12:51:16.416138+00,,,,pending,false,false,
67751b03-00c6-4f45-89c7-4d883f231c42,Grand Lodge of Illinois,grandlodge,,,,,,,2025-05-01 12:51:16.416138+00,2025-05-01 12:51:16.416138+00,,,,pending,false,false,
37f48abc-d73f-45d3-accd-c5454523339d,Grand Lodge of France,grandlodge,,,,,,,2025-05-01 12:51:16.416138+00,2025-05-01 12:51:16.416138+00,,,,pending,false,false,
75fcbab2-b5a9-4386-84d1-0a05af0876db,United Grand Lodges of Germany,grandlodge,,,,,,,2025-05-01 12:51:16.416138+00,2025-05-01 12:51:16.416138+00,,,,pending,false,false,
d3d07d56-1a8c-4586-9132-d2890e3582b1,Grand Orient of Italy,grandlodge,,,,,,,2025-05-01 12:51:16.416138+00,2025-05-01 12:51:16.416138+00,,,,pending,false,false,
0e55f961-2241-491b-8e5a-ec7b22cdf41f,Grand Lodge of India,grandlodge,,,,,,,2025-05-01 12:51:16.416138+00,2025-05-01 12:51:16.416138+00,,,,pending,false,false,
3276c10e-1b9d-4a8a-9679-2563b64693c0,Grand Orient of Brazil,grandlodge,,,,,,,2025-05-01 12:51:16.416138+00,2025-05-01 12:51:16.416138+00,,,,pending,false,false,
072d4e35-d6db-4fb4-b39f-22b3c9643c9a,Grand Lodge of South Africa,grandlodge,,,,,,,2025-05-01 12:51:16.416138+00,2025-05-01 12:51:16.416138+00,,,,pending,false,false,
79595e70-5af0-4a2b-8152-a8dff1fb0e60,Luneta Masonic Lodge No. 510,lodge,,,,,Philippines,,2025-06-08 18:54:15.155244+00,2025-06-08 18:54:15.155244+00,,,,pending,false,false,
21879d5f-f1a3-4b22-aca1-591e901390b2," The Leichhardt lodge  No. 133",lodge,,,,,Australia,,2025-06-09 07:43:48.536728+00,2025-06-09 07:43:48.536728+00,,,,pending,false,false,
5b7a4207-04b0-4365-bb8f-de771873328b,Mt. Malindang Lodge  No. 130,lodge,,,,,Philippines,,2025-06-15 09:23:55.014488+00,2025-06-15 09:23:55.014488+00,,,,pending,false,false,
cf449870-daee-4421-8370-2d665a6eff2b,Grand Lodge of Austria,grandlodge,,,,,Austria,,2025-06-15 13:00:25.478934+00,2025-06-15 13:00:25.478934+00,GLA,GLA,,pending,false,false,
97216a48-ae95-4d1a-bf00-3a30b32b2098,Regular Grand Lodge of Belgium,grandlodge,,,,,Belgium,,2025-06-15 13:00:25.478934+00,2025-06-15 13:00:25.478934+00,RGLB,RGLB,,pending,false,false,
8df39e62-43ae-4f55-9717-9248474b4432,Grand Lodge of Bosnia and Herzegovina,grandlodge,,,,,Bosnia and Herzegovina,,2025-06-15 13:00:25.478934+00,2025-06-15 13:00:25.478934+00,GLBH,GLBH,,pending,false,false,
7f9f72d4-337e-4624-9d41-5e9ab2b6b624,The Lodge Of Transition No. 9999,lodge,,,,,,,2025-06-12 23:02:29.634097+00,2025-06-12 23:02:29.634097+00,,,,pending,false,false,
cb8f695d-1dde-4577-a2f3-2f169873410f,United Grand Lodge of Bulgaria,grandlodge,,,,,Bulgaria,,2025-06-15 13:00:25.478934+00,2025-06-15 13:00:25.478934+00,UGLB,UGLB,,pending,false,false,
e6202bea-9821-4512-b152-27c2e0803a65,Grand Lodge of Croatia,grandlodge,,,,,Croatia,,2025-06-15 13:00:25.478934+00,2025-06-15 13:00:25.478934+00,GLC,GLC,,pending,false,false,
1985d99b-32f9-4127-bc28-cb3890140b9c,Grand Lodge of Cyprus,grandlodge,,,,,Cyprus,,2025-06-15 13:00:25.478934+00,2025-06-15 13:00:25.478934+00,GLC,GLC,,pending,false,false,
c6883d07-5980-4f90-9994-75e07325b246,Grand Lodge of Czech Republic,grandlodge,,,,,Czech Republic,,2025-06-15 13:00:25.478934+00,2025-06-15 13:00:25.478934+00,GLCR,GLCR,,pending,false,false,
ddd51a61-325d-4351-888d-ff55f350df14,Danish Order of Freemasons,grandlodge,,,,,Denmark,,2025-06-15 13:00:25.478934+00,2025-06-15 13:00:25.478934+00,DOF,DOF,,pending,false,false,
72454f6e-8ae4-4bc8-bccf-cd0d7c819af0,Grand Lodge of Estonia,grandlodge,,,,,Estonia,,2025-06-15 13:00:25.478934+00,2025-06-15 13:00:25.478934+00,GLE,GLE,,pending,false,false,
eafb4cee-2f91-4bb9-bdd7-a52a160f06c0,Grand Lodge of Finland,grandlodge,,,,,Finland,,2025-06-15 13:00:25.478934+00,2025-06-15 13:00:25.478934+00,GLF,GLF,,pending,false,false,
28f931ba-b692-4150-81ec-aef872cb0084,Grand Lodge of Greece,grandlodge,,,,,Greece,,2025-06-15 13:00:25.478934+00,2025-06-15 13:00:25.478934+00,GLG,GLG,,pending,false,false,
4267f373-b9bc-4325-84c2-5c220f5e64e7,Symbolic Grand Lodge of Hungary,grandlodge,,,,,Hungary,,2025-06-15 13:00:25.478934+00,2025-06-15 13:00:25.478934+00,SGLH,SGLH,,pending,false,false,
f8ae55ed-9e35-45f7-a7b4-376d01f4d758,Icelandic Order of Freemasons,grandlodge,,,,,Iceland,,2025-06-15 13:00:25.478934+00,2025-06-15 13:00:25.478934+00,IOF,IOF,,pending,false,false,
252dd93e-6787-2775-4af9-3483b2032cbc,Lodge Myall No. 1058,lodge,Tea Gardens,,,,,,2025-05-01 12:51:16.416138+00,2025-05-01 12:51:16.416138+00,,,,pending,false,false,
c71c6e34-50ac-46e1-988d-d626cb332f2d,Jose Rizal No. 22,lodge,,,,,Philippines,,2025-06-08 18:54:44.877642+00,2025-06-08 18:54:44.877642+00,,,,pending,false,false,
c5098c19-1b2e-4b31-9139-ab37d16d9632,Mark owen 828,lodge,,,,,Australia,,2025-06-09 08:41:41.352466+00,2025-06-09 08:41:41.352466+00,,,,pending,false,false,
895545d8-7865-4d99-a0d1-1b3683a9a00c,Grand Lodge of Macedonia,grandlodge,,,,,North Macedonia,,2025-06-15 13:00:25.478934+00,2025-06-15 13:00:25.478934+00,GLM,GLM,,pending,false,false,
bcf155d7-67ca-4c27-bc04-77e8fc0cd415,Grand Lodge of Moldova,grandlodge,,,,,Moldova,,2025-06-15 13:00:25.478934+00,2025-06-15 13:00:25.478934+00,GLM,GLM,,pending,false,false,
852ac07b-6986-433d-b74a-0065b044138a,National Regular Grand Lodge of the Principality of Monaco,grandlodge,,,,,Monaco,,2025-06-15 13:00:25.478934+00,2025-06-15 13:00:25.478934+00,NRGLM,NRGLM,,pending,false,false,
023985f1-b0b3-4d06-a4ed-1eb09c238af1,Grand Lodge of Montenegro,grandlodge,,,,,Montenegro,,2025-06-15 13:00:25.478934+00,2025-06-15 13:00:25.478934+00,GLM,GLM,,pending,false,false,
0c90f9e5-7b3a-407b-a06b-c4319fea1b05,Grand East of the Netherlands,grandlodge,,,,,Netherlands,,2025-06-15 13:00:25.478934+00,2025-06-15 13:00:25.478934+00,GEN,GEN,,pending,false,false,
3d90aaf4-6a8f-4403-9dba-c932156022d3,Norwegian Order of Freemasons,grandlodge,,,,,Norway,,2025-06-15 13:00:25.478934+00,2025-06-15 13:00:25.478934+00,NOF,NOF,,pending,false,false,
649a8c7e-df82-4fc8-af63-7249fe0ac25c,Regular Grand Lodge of Portugal (Legal),grandlodge,,,,,Portugal,,2025-06-15 13:00:25.478934+00,2025-06-15 13:00:25.478934+00,RGLP,RGLP,,pending,false,false,
f3c4fad8-6297-4be1-8a31-6a8aa52ea2ed,National Grand Lodge of Romania,grandlodge,,,,,Romania,,2025-06-15 13:00:25.478934+00,2025-06-15 13:00:25.478934+00,NGLR,NGLR,,pending,false,false,
7f6f3d5d-b09a-4af1-af57-7d4ffe84e433,Grand Lodge of Russia,grandlodge,,,,,Russia,,2025-06-15 13:00:25.478934+00,2025-06-15 13:00:25.478934+00,GLR,GLR,,pending,false,false,
5d3725c6-6208-4654-93fb-46ea251ed099,Grand Lodge of the Most Serene Republic of San Marino,grandlodge,,,,,San Marino,,2025-06-15 13:00:25.478934+00,2025-06-15 13:00:25.478934+00,GLSM,GLSM,,pending,false,false,
9735aa4c-da86-4c79-b6dc-e51565646fcd,Regular Grand Lodge of Serbia,grandlodge,,,,,Serbia,,2025-06-15 13:00:25.478934+00,2025-06-15 13:00:25.478934+00,RGLS,RGLS,,pending,false,false,
b667321b-a47b-407a-90db-13073d7a5ec3,Grand Lodge of Spain,grandlodge,,,,,Spain,,2025-06-15 13:00:25.478934+00,2025-06-15 13:00:25.478934+00,GLS,GLS,,pending,false,false,
01c396ef-0aa7-4d20-94d9-13468355ab5d,Swedish Order of Freemasons,grandlodge,,,,,Sweden,,2025-06-15 13:00:25.478934+00,2025-06-15 13:00:25.478934+00,SOF,SOF,,pending,false,false,
8434a337-6654-4dbb-b71a-885052b4c559,Grand Lodge Alpina of Switzerland,grandlodge,,,,,Switzerland,,2025-06-15 13:00:25.478934+00,2025-06-15 13:00:25.478934+00,GLAS,GLAS,,pending,false,false,
02874c9d-19b6-44ad-82f0-7c9bf1d442ab,Grand Lodge of Ukraine,grandlodge,,,,,Ukraine,,2025-06-15 13:00:25.478934+00,2025-06-15 13:00:25.478934+00,GLU,GLU,,pending,false,false,
14d3d0a4-d96a-4ade-8488-7d5b77c5ef76,Grand Lodge of Rhode Island,grandlodge,,,Rhode Island,,United States,,2025-06-15 13:02:34.601204+00,2025-06-15 13:02:34.601204+00,GLRI,GLRI,,pending,false,false,
a90cda38-9a92-4466-8842-e76d08f822db,Grand Lodge of South Carolina,grandlodge,,,South Carolina,,United States,,2025-06-15 13:02:34.601204+00,2025-06-15 13:02:34.601204+00,GLSC,GLSC,,pending,false,false,
ff084ccf-b856-4ffd-9339-f602dd944c90,Grand Lodge of South Dakota,grandlodge,,,South Dakota,,United States,,2025-06-15 13:02:34.601204+00,2025-06-15 13:02:34.601204+00,GLSD,GLSD,,pending,false,false,
da127aaf-0206-43c8-867a-9dc274d972ea,Grand Lodge of Tennessee,grandlodge,,,Tennessee,,United States,,2025-06-15 13:02:34.601204+00,2025-06-15 13:02:34.601204+00,GLTN,GLTN,,pending,false,false,
efb67ae4-c057-45bf-bf41-65b8e80d1701,Grand Lodge of the District of Columbia,grandlodge,,,District of Columbia,,United States,,2025-06-15 13:02:34.601204+00,2025-06-15 13:02:34.601204+00,GLDC,GLDC,,pending,false,false,
e74fadd1-5a21-4ea2-872c-392773f750e8,Grand Lodge of Utah,grandlodge,,,Utah,,United States,,2025-06-15 13:02:34.601204+00,2025-06-15 13:02:34.601204+00,GLUT,GLUT,,pending,false,false,
3d08dea5-8d1a-4e4f-9644-b879466acb18,Grand Lodge of Vermont,grandlodge,,,Vermont,,United States,,2025-06-15 13:02:34.601204+00,2025-06-15 13:02:34.601204+00,GLVT,GLVT,,pending,false,false,
6b44aee5-da87-4b2b-bc80-9693f471cb83,Grand Lodge of Virginia,grandlodge,,,Virginia,,United States,,2025-06-15 13:02:34.601204+00,2025-06-15 13:02:34.601204+00,GLVA,GLVA,,pending,false,false,
fedc2f47-a621-4f1d-a96a-caa5bf10cde1,Grand Lodge of Washington,grandlodge,,,Washington,,United States,,2025-06-15 13:02:34.601204+00,2025-06-15 13:02:34.601204+00,GLWA,GLWA,,pending,false,false,
fea4a6f9-4fcc-4b5c-9389-8b0fad8a10aa,Grand Lodge of West Virginia,grandlodge,,,West Virginia,,United States,,2025-06-15 13:02:34.601204+00,2025-06-15 13:02:34.601204+00,GLWV,GLWV,,pending,false,false,
217ea6ad-aadf-42e2-9a02-41a7df3390d8,Grand Lodge of Wisconsin,grandlodge,,,Wisconsin,,United States,,2025-06-15 13:02:34.601204+00,2025-06-15 13:02:34.601204+00,GLWI,GLWI,,pending,false,false,
de782171-30fc-488a-bea0-21a80fc306dc,Grand Lodge of Wyoming,grandlodge,,,Wyoming,,United States,,2025-06-15 13:02:34.601204+00,2025-06-15 13:02:34.601204+00,GLWY,GLWY,,pending,false,false,
0e8c91f6-7467-48b7-a96c-5fc735b79a5f,Grand Lodge of the State of Acre,grandlodge,,,Acre,,Brazil,,2025-06-15 22:56:53.793838+00,2025-06-15 22:56:53.793838+00,GLAC,GLAC,,pending,false,false,
b6befec5-9802-4f2a-8f8b-b20f7ca2fee9,Grand Lodge of the State of Amazonas,grandlodge,,,Amazonas,,Brazil,,2025-06-15 22:56:53.793838+00,2025-06-15 22:56:53.793838+00,GLAM,GLAM,,pending,false,false,
4b3b4dea-76b3-4d43-b0ad-ac47b297fa8a,Grand Lodge of the State of Bahia,grandlodge,,,Bahia,,Brazil,,2025-06-15 22:56:53.793838+00,2025-06-15 22:56:53.793838+00,GLBA,GLBA,,pending,false,false,
0d2ddce8-de73-47d8-9fbf-b4e0fb1a66c9,Grand Lodge of the State of Ceará,grandlodge,,,Ceará,,Brazil,,2025-06-15 22:56:53.793838+00,2025-06-15 22:56:53.793838+00,GLCE,GLCE,,pending,false,false,
0483dcd6-0275-44e2-90fe-8117f5cae989,Grand Lodge of the State of Espírito Santo,grandlodge,,,Espírito Santo,,Brazil,,2025-06-15 22:56:53.793838+00,2025-06-15 22:56:53.793838+00,GLES,GLES,,pending,false,false,
5f6cf895-81ef-4beb-8964-e7e7a3f6aa1b,Grand Lodge of the State of Maranhão,grandlodge,,,Maranhão,,Brazil,,2025-06-15 22:56:53.793838+00,2025-06-15 22:56:53.793838+00,GLMA,GLMA,,pending,false,false,
e1c0d9de-869d-4093-9f81-db943df14d67,Grand Lodge of the State of Mato Grosso,grandlodge,,,Mato Grosso,,Brazil,,2025-06-15 22:56:53.793838+00,2025-06-15 22:56:53.793838+00,GLMT,GLMT,,pending,false,false,
b191643c-6362-422c-8a4d-0911d6835f1f,Grand Orient of the State of Mato Grosso,grandlodge,,,Mato Grosso,,Brazil,,2025-06-15 22:56:53.793838+00,2025-06-15 22:56:53.793838+00,GOMT,GOMT,,pending,false,false,
2c824896-7e91-4c7a-a437-8b08361d4362,Grand Lodge of the State of Minas Gerais,grandlodge,,,Minas Gerais,,Brazil,,2025-06-15 22:56:53.793838+00,2025-06-15 22:56:53.793838+00,GLMG,GLMG,,pending,false,false,
8e37ccb6-b4e6-4bb8-81c8-83ad87e8b938,Grand Orient of Minas Gerais,grandlodge,,,Minas Gerais,,Brazil,,2025-06-15 22:56:53.793838+00,2025-06-15 22:56:53.793838+00,GOMG,GOMG,,pending,false,false,
06df7c94-6377-426e-9834-c0ab38072303,Lodge Antiquity No. 1,lodge,,,,,,,2025-06-17 04:46:11.199218+00,2025-06-17 04:46:11.199218+00,,,,pending,false,false,
78e21d2d-a69e-494e-b3c0-0b25f952a238,The Prince Charles Edward Stuart Lodge No. 1745,lodge,,,,,,,2025-06-17 06:38:05.437377+00,2025-06-17 06:38:05.437377+00,,,,pending,false,false,
32061b32-2081-4eae-a4e4-d17f6be2d57d,The Sir Walter Scott Lodge No. 123,lodge,,,,,,,2025-06-18 01:48:48.377024+00,2025-06-18 01:48:48.377024+00,,,,pending,false,false,
43e86ba7-ce74-46e7-9407-04519daebde7,The Lodge of Antiquity No. 1,lodge,,,,,Canada,,2025-06-08 19:27:55.246337+00,2025-06-08 19:27:55.246337+00,,,,pending,false,false,
a0e24fa8-9462-45b6-99e7-5cb579369658,Loge Lorraine No. 141,lodge,,,,,Canada,,2025-06-09 13:43:42.307384+00,2025-06-09 13:43:42.307384+00,,,,pending,false,false,
9c2b4ed6-5860-4d38-9bfe-ab7851c1686b,Grand Lodge of Benin,grandlodge,,,,,Benin,,2025-06-15 13:01:00.041787+00,2025-06-15 13:01:00.041787+00,GLB,GLB,,pending,false,false,
12c06a87-02ab-4500-a86f-7c526ed0ed8d,Grand Lodge of Burkina Faso,grandlodge,,,,,Burkina Faso,,2025-06-15 13:01:00.041787+00,2025-06-15 13:01:00.041787+00,GLBF,GLBF,,pending,false,false,
3efad990-f822-4d6f-83b4-d8b68515161f,Grand Lodge of Gabon,grandlodge,,,,,Gabon,,2025-06-15 13:01:00.041787+00,2025-06-15 13:01:00.041787+00,GLG,GLG,,pending,false,false,
3563395a-badc-47fa-a717-12440dc16f5e,Grand Lodge of Ghana,grandlodge,,,,,Ghana,,2025-06-15 13:01:00.041787+00,2025-06-15 13:01:00.041787+00,GLG,GLG,,pending,false,false,
5e29d29a-0bef-4abd-aef8-d46fb5deede8,Grand Lodge of Cote D'lvoire,grandlodge,,,,,Côte d'Ivoire,,2025-06-15 13:01:00.041787+00,2025-06-15 13:01:00.041787+00,GLCI,GLCI,,pending,false,false,
7ff9311a-3fcc-409e-a341-947facb77a79,Prince Hall Grand Lodge of Liberia,grandlodge,,,,,Liberia,,2025-06-15 13:01:00.041787+00,2025-06-15 13:01:00.041787+00,PHGLL,PHGLL,,pending,false,false,
714e73d1-1dc2-4fda-a372-2b43c3086284,National Grand Lodge of Madagascar,grandlodge,,,,,Madagascar,,2025-06-15 13:01:00.041787+00,2025-06-15 13:01:00.041787+00,NGLM,NGLM,,pending,false,false,
080e646e-1682-4371-9b72-6805cb092744,Grand Lodge of Mauritius,grandlodge,,,,,Mauritius,,2025-06-15 13:01:00.041787+00,2025-06-15 13:01:00.041787+00,GLM,GLM,,pending,false,false,
65a78bf4-770a-4629-b563-9a24a939bcad,Grand Lodge of Senegal,grandlodge,,,,,Senegal,,2025-06-15 13:01:00.041787+00,2025-06-15 13:01:00.041787+00,GLS,GLS,,pending,false,false,
8825c972-0531-467c-9405-3944ba872f02,National Grand Lodge of Togo,grandlodge,,,,,Togo,,2025-06-15 13:01:00.041787+00,2025-06-15 13:01:00.041787+00,NGLT,NGLT,,pending,false,false,
406a76cd-cd18-4d3a-af2b-0b8b7bf8cd12,Grand Lodge of China,grandlodge,,,,,Taiwan,,2025-06-15 13:01:00.041787+00,2025-06-15 13:01:00.041787+00,GLC,GLC,,pending,false,false,
84326299-5a56-4958-a370-1e82f9485f94,Grand Lodge of the State of Israel,grandlodge,,,,,Israel,,2025-06-15 13:01:00.041787+00,2025-06-15 13:01:00.041787+00,GLSI,GLSI,,pending,false,false,
4b513c3e-aeed-43f4-a2e9-188127c66549,Grand Lodge of Kazakhastan,grandlodge,,,,,Kazakhstan,,2025-06-15 13:01:00.041787+00,2025-06-15 13:01:00.041787+00,GLK,GLK,,pending,false,false,
fad49bec-8d66-4809-8c74-da756dfc8a6a,Grand Lodge of Turkey,grandlodge,,,,,Turkey,,2025-06-15 13:01:00.041787+00,2025-06-15 13:01:00.041787+00,GLT,GLT,,pending,false,false,
886cb4e8-58f2-4f89-b113-574d5d44018d,Prince Hall Grand Lodge of Alaska,grandlodge,,,Alaska,,United States,,2025-06-15 13:03:06.594449+00,2025-06-15 13:03:06.594449+00,PHGLAK,PHGLAK,,pending,false,false,
35467677-2ebe-4e01-b137-bdf0d522f7ec,Prince Hall Grand Lodge of Arizona,grandlodge,,,Arizona,,United States,,2025-06-15 13:03:06.594449+00,2025-06-15 13:03:06.594449+00,PHGLAZ,PHGLAZ,,pending,false,false,
32bc143a-a3f3-441d-88d8-479687a44f01,Prince Hall Grand Lodge of California,grandlodge,,,California,,United States,,2025-06-15 13:03:06.594449+00,2025-06-15 13:03:06.594449+00,PHGLCA,PHGLCA,,pending,false,false,
9e5400e6-cee8-45f3-8b75-2fd43cb47557,Prince Hall Grand Lodge of Colorado,grandlodge,,,Colorado,,United States,,2025-06-15 13:03:06.594449+00,2025-06-15 13:03:06.594449+00,PHGLCO,PHGLCO,,pending,false,false,
c36494c8-b7bd-4a04-bf31-ad4d0604105c,Prince Hall Grand Lodge of Connecticut,grandlodge,,,Connecticut,,United States,,2025-06-15 13:03:06.594449+00,2025-06-15 13:03:06.594449+00,PHGLCT,PHGLCT,,pending,false,false,
fe46d85b-27e9-46df-8258-cd39b02ee906,Prince Hall Grand Lodge of the District of Columbia,grandlodge,,,District of Columbia,,United States,,2025-06-15 13:03:06.594449+00,2025-06-15 13:03:06.594449+00,PHGLDC,PHGLDC,,pending,false,false,
a1971adc-d02e-46ab-a3d4-146703e44f73,Prince Hall Grand Lodge of Hawaii,grandlodge,,,Hawaii,,United States,,2025-06-15 13:03:06.594449+00,2025-06-15 13:03:06.594449+00,PHGLHI,PHGLHI,,pending,false,false,
d52cef57-a6b6-4da0-87d6-7283c8ccbdb7,Prince Hall Grand Lodge of Illinois,grandlodge,,,Illinois,,United States,,2025-06-15 13:03:06.594449+00,2025-06-15 13:03:06.594449+00,PHGLIL,PHGLIL,,pending,false,false,
4d275eb5-2a8e-4cee-97dc-5d01a7387a25,Prince Hall Grand Lodge of Indiana,grandlodge,,,Indiana,,United States,,2025-06-15 13:03:06.594449+00,2025-06-15 13:03:06.594449+00,PHGLIN,PHGLIN,,pending,false,false,
a358b24f-015a-4c72-9044-eacad5e0a9ec,Prince Hall Grand Lodge of Iowa,grandlodge,,,Iowa,,United States,,2025-06-15 13:03:06.594449+00,2025-06-15 13:03:06.594449+00,PHGLIA,PHGLIA,,pending,false,false,
25f97c53-bcb0-4842-b33a-af90e3e0f820,Prince Hall Grand Lodge of Kansas,grandlodge,,,Kansas,,United States,,2025-06-15 13:03:06.594449+00,2025-06-15 13:03:06.594449+00,PHGLKS,PHGLKS,,pending,false,false,
2432b44b-184e-42a3-ad1c-b10871157966,Prince Hall Grand Lodge of Maryland,grandlodge,,,Maryland,,United States,,2025-06-15 13:03:06.594449+00,2025-06-15 13:03:06.594449+00,PHGLMD,PHGLMD,,pending,false,false,
e31efdfa-d282-4677-b3a0-86bdc7b4c4de,Prince Hall Grand Lodge of Massachusetts,grandlodge,,,Massachusetts,,United States,,2025-06-15 13:03:06.594449+00,2025-06-15 13:03:06.594449+00,PHGLMA,PHGLMA,,pending,false,false,
d879aee7-f7e6-4241-b418-0a8a6129af2e,Prince Hall Grand Lodge of Michigan,grandlodge,,,Michigan,,United States,,2025-06-15 13:03:06.594449+00,2025-06-15 13:03:06.594449+00,PHGLMI,PHGLMI,,pending,false,false,
442d5dc0-b750-4dec-a2b5-e44aaf0bb9a5,Grand Lodge of the State of Piauí,grandlodge,,,Piauí,,Brazil,,2025-06-15 22:57:17.664763+00,2025-06-15 22:57:17.664763+00,GLPI,GLPI,,pending,false,false,
efba661e-95bc-495c-91dc-31f32bab8aa3,Independent Grand Orient of Pernambuco,grandlodge,,,Pernambuco,,Brazil,,2025-06-15 22:57:17.664763+00,2025-06-15 22:57:17.664763+00,IGOPE,IGOPE,,pending,false,false,
d27c70db-ea02-4215-8444-8fd82519012b,Grand Lodge of the State of Rio De Janeiro,grandlodge,,,Rio de Janeiro,,Brazil,,2025-06-15 22:57:17.664763+00,2025-06-15 22:57:17.664763+00,GLRJ,GLRJ,,pending,false,false,
fd0979e6-3bb2-457f-a03e-10ebd18a3277,Grand Orient of Rio Grande do Norte,grandlodge,,,Rio Grande do Norte,,Brazil,,2025-06-15 22:57:17.664763+00,2025-06-15 22:57:17.664763+00,GORN,GORN,,pending,false,false,
ba3f8617-03a0-4515-a91f-f00ee9760c81,Grand Lodge of the State of Rio Grande do Sul,grandlodge,,,Rio Grande do Sul,,Brazil,,2025-06-15 22:57:17.664763+00,2025-06-15 22:57:17.664763+00,GLRS,GLRS,,pending,false,false,
266a8bbd-4130-4040-8377-4f93fc39eb9b,Grand Lodge of the State of São Paulo,grandlodge,,,São Paulo,,Brazil,,2025-06-15 22:57:17.664763+00,2025-06-15 22:57:17.664763+00,GLSP,GLSP,,pending,false,false,
3e8f5b66-34a5-4675-a9c2-8043c1ef6c64,Grand Orient Paulista,grandlodge,,,São Paulo,,Brazil,,2025-06-15 22:57:17.664763+00,2025-06-15 22:57:17.664763+00,GOP,GOP,,pending,false,false,
4710e8b1-a186-4bc2-9255-82d56bbf7e76,Grand Orient of Santa Catarina,grandlodge,,,Santa Catarina,,Brazil,,2025-06-15 22:57:17.664763+00,2025-06-15 22:57:17.664763+00,GOSC,GOSC,,pending,false,false,
8fae02cf-eb40-45fe-8715-75fcba67dfc7,The Lodge Of Transition No. 9999,lodge,,,,,,,2025-06-17 02:36:59.166595+00,2025-06-17 02:36:59.166595+00,,,,pending,false,false,
027f5979-6fc3-4567-be1d-bf60e545b272,Lodge Ku-Ring-Gai No. 1033,lodge,,,,,,,2025-06-17 05:11:26.708437+00,2025-06-17 05:11:26.708437+00,,,,pending,false,false,
abd1bb4e-0e29-468e-95a2-dd590ab07155,Lodge Alpha No. 970,lodge,,,,,,,2025-06-17 07:02:25.208767+00,2025-06-17 07:02:25.208767+00,,,,pending,false,false,
5dcf5205-e589-406b-b433-d28ea0553171,Lorraine,lodge,,,,,Canada,,2025-06-08 17:50:11.520046+00,2025-06-08 17:50:11.520046+00,,,,pending,false,false,
bbd86d82-cd90-4779-928f-5a3861b5f284,SINUKUAN LODGE No. 16,lodge,,,,,Philippines,,2025-06-08 20:41:28.418828+00,2025-06-08 20:41:28.418828+00,,,,pending,false,false,
26444afa-3ad0-43db-90b3-a56155156406,Sagamihara No. 13,lodge,,,,,Japan,,2025-06-12 05:52:27.183174+00,2025-06-12 05:52:27.183174+00,,,,pending,false,false,
37b08580-90f3-4af0-9280-8da7900df29f,Grand Lodge of Alabama,grandlodge,,,Alabama,,United States,,2025-06-15 13:01:31.689075+00,2025-06-15 13:01:31.689075+00,GLAL,GLAL,,pending,false,false,
de7c4201-6a18-4c39-ba78-7fbb82552bc7,Grand Lodge of Alaska,grandlodge,,,Alaska,,United States,,2025-06-15 13:01:31.689075+00,2025-06-15 13:01:31.689075+00,GLAK,GLAK,,pending,false,false,
9d8b75fc-d30e-468b-915a-f3be9ab1f018,Grand Lodge of Arizona,grandlodge,,,Arizona,,United States,,2025-06-15 13:01:31.689075+00,2025-06-15 13:01:31.689075+00,GLAZ,GLAZ,,pending,false,false,
9ddd1b59-50bb-49d1-9135-212887128322,Grand Lodge of Arkansas,grandlodge,,,Arkansas,,United States,,2025-06-15 13:01:31.689075+00,2025-06-15 13:01:31.689075+00,GLAR,GLAR,,pending,false,false,
0325b033-b583-4fbe-b6f9-30b205e5fbc9,Grand Lodge of Colorado,grandlodge,,,Colorado,,United States,,2025-06-15 13:01:31.689075+00,2025-06-15 13:01:31.689075+00,GLCO,GLCO,,pending,false,false,
53a3af0f-b592-426a-872e-49e87de2370f,Grand Lodge of Connecticut,grandlodge,,,Connecticut,,United States,,2025-06-15 13:01:31.689075+00,2025-06-15 13:01:31.689075+00,GLCT,GLCT,,pending,false,false,
9997201c-433a-4d3d-bf54-4fc7331455b6,Grand Lodge of Delaware,grandlodge,,,Delaware,,United States,,2025-06-15 13:01:31.689075+00,2025-06-15 13:01:31.689075+00,GLDE,GLDE,,pending,false,false,
ac775651-af31-4658-b8ab-0f0a13c2c910,Grand Lodge of Florida,grandlodge,,,Florida,,United States,,2025-06-15 13:01:31.689075+00,2025-06-15 13:01:31.689075+00,GLFL,GLFL,,pending,false,false,
4ce3d33a-61be-457b-8834-f5fc70a0b10e,Grand Lodge of Georgia,grandlodge,,,Georgia,,United States,,2025-06-15 13:01:31.689075+00,2025-06-15 13:01:31.689075+00,GLGA,GLGA,,pending,false,false,
6b668bfb-e34d-4a24-861a-d981d4652384,Grand Lodge of Hawaii,grandlodge,,,Hawaii,,United States,,2025-06-15 13:01:31.689075+00,2025-06-15 13:01:31.689075+00,GLHI,GLHI,,pending,false,false,
bf361f95-4419-4052-bd3e-e0f88c2a0a26,Grand Lodge of Idaho,grandlodge,,,Idaho,,United States,,2025-06-15 13:01:31.689075+00,2025-06-15 13:01:31.689075+00,GLID,GLID,,pending,false,false,
bb4705e3-fd7b-4fb9-815b-5143ed6d37ee,Grand Lodge of Indiana,grandlodge,,,Indiana,,United States,,2025-06-15 13:01:31.689075+00,2025-06-15 13:01:31.689075+00,GLIN,GLIN,,pending,false,false,
ff9d728f-59d1-4c17-9e18-85796a83b00c,Grand Lodge of Iowa,grandlodge,,,Iowa,,United States,,2025-06-15 13:01:31.689075+00,2025-06-15 13:01:31.689075+00,GLIA,GLIA,,pending,false,false,
82778dee-1258-45b7-a9a9-4d518d9500b5,Grand Lodge of Kansas,grandlodge,,,Kansas,,United States,,2025-06-15 13:01:31.689075+00,2025-06-15 13:01:31.689075+00,GLKS,GLKS,,pending,false,false,
ce3964c6-2afb-47ec-8d08-c2be5e38c5c2,Prince Hall Grand Lodge of Minnesota,grandlodge,,,Minnesota,,United States,,2025-06-15 13:03:36.96621+00,2025-06-15 13:03:36.96621+00,PHGLMN,PHGLMN,,pending,false,false,
5847cc99-a83e-476d-acc0-cc4bd9b8eb6c,Prince Hall Grand Lodge of Nebraska,grandlodge,,,Nebraska,,United States,,2025-06-15 13:03:36.96621+00,2025-06-15 13:03:36.96621+00,PHGLNE,PHGLNE,,pending,false,false,
4d747410-1bdb-4111-834c-4ac3e5eef3d9,Prince Hall Grand Lodge of New Jersey,grandlodge,,,New Jersey,,United States,,2025-06-15 13:03:36.96621+00,2025-06-15 13:03:36.96621+00,PHGLNJ,PHGLNJ,,pending,false,false,
68920132-0c3b-4239-8660-ea640e24a641,Prince Hall Grand Lodge of New Mexico,grandlodge,,,New Mexico,,United States,,2025-06-15 13:03:36.96621+00,2025-06-15 13:03:36.96621+00,PHGLNM,PHGLNM,,pending,false,false,
7ef1fba0-741a-48bc-99d3-07f8edcf56a7,Prince Hall Grand Lodge of New York,grandlodge,,,New York,,United States,,2025-06-15 13:03:36.96621+00,2025-06-15 13:03:36.96621+00,PHGLNY,PHGLNY,,pending,false,false,
d91b5ec7-27ef-46af-93ba-28e92dccede1,Prince Hall Grand Lodge of North Carolina,grandlodge,,,North Carolina,,United States,,2025-06-15 13:03:36.96621+00,2025-06-15 13:03:36.96621+00,PHGLNC,PHGLNC,,pending,false,false,
964fa384-fffe-445e-b9bd-01111af5e9ae,Prince Hall Grand Lodge of Ohio,grandlodge,,,Ohio,,United States,,2025-06-15 13:03:36.96621+00,2025-06-15 13:03:36.96621+00,PHGLOH,PHGLOH,,pending,false,false,
067c2619-8d00-4d60-9f7f-c8b5416415c2,Prince Hall Grand Lodge of Oregon,grandlodge,,,Oregon,,United States,,2025-06-15 13:03:36.96621+00,2025-06-15 13:03:36.96621+00,PHGLOR,PHGLOR,,pending,false,false,
f9d78c5b-8140-45a6-a078-38bae47aff29,Prince Hall Grand Lodge of Pennsylvania,grandlodge,,,Pennsylvania,,United States,,2025-06-15 13:03:36.96621+00,2025-06-15 13:03:36.96621+00,PHGLPA,PHGLPA,,pending,false,false,
ef7001c1-b2fe-44ea-94cc-368848435ca1,Prince Hall Grand Lodge of Rhode Island,grandlodge,,,Rhode Island,,United States,,2025-06-15 13:03:36.96621+00,2025-06-15 13:03:36.96621+00,PHGLRI,PHGLRI,,pending,false,false,
8900f517-1307-46a4-b049-955861ec2aba,Prince Hall Grand Lodge of Texas,grandlodge,,,Texas,,United States,,2025-06-15 13:03:36.96621+00,2025-06-15 13:03:36.96621+00,PHGLTX,PHGLTX,,pending,false,false,
449e54d9-7d3a-4a75-a0d6-35d91de4af2f,Prince Hall Grand Lodge of Virginia,grandlodge,,,Virginia,,United States,,2025-06-15 13:03:36.96621+00,2025-06-15 13:03:36.96621+00,PHGLVA,PHGLVA,,pending,false,false,
af5fa6ba-0b49-4613-96c3-b46f0f88501e,Prince Hall Grand Lodge of Washington,grandlodge,,,Washington,,United States,,2025-06-15 13:03:36.96621+00,2025-06-15 13:03:36.96621+00,PHGLWA,PHGLWA,,pending,false,false,
ba4f8b75-cc4f-4b70-94a8-0e1b5cc34abd,Prince Hall Grand Lodge of Wisconsin,grandlodge,,,Wisconsin,,United States,,2025-06-15 13:03:36.96621+00,2025-06-15 13:03:36.96621+00,PHGLWI,PHGLWI,,pending,false,false,
67609b65-e51a-496c-a4ab-c76a4eed8faa,Grand Lodge of Colombia at Barranquilla,grandlodge,,Barranquilla,,,Colombia,,2025-06-15 22:57:33.586253+00,2025-06-15 22:57:33.586253+00,GLCB,GLCB,,pending,false,false,
d0dec346-6129-4b45-a15f-dc3cd370435c,Grand Lodge of Colombia at Bogota,grandlodge,,Bogota,,,Colombia,,2025-06-15 22:57:33.586253+00,2025-06-15 22:57:33.586253+00,GLCBO,GLCBO,,pending,false,false,
48a0ded8-d69c-4a94-933c-35404060a06d,Grand Lodge of Colombia at Cartagena,grandlodge,,Cartagena,,,Colombia,,2025-06-15 22:57:33.586253+00,2025-06-15 22:57:33.586253+00,GLCC,GLCC,,pending,false,false,
0344c226-5e9d-4534-8fca-dcb919916d80,Grand Lodge of Los Andes,grandlodge,,,,,Colombia,,2025-06-15 22:57:33.586253+00,2025-06-15 22:57:33.586253+00,GLLA,GLLA,,pending,false,false,
79e7bfae-15c8-4e49-89a9-0da619ab9265,The Lodge Of Transition No. 9999,lodge,,,,,,,2025-06-17 02:55:14.161557+00,2025-06-17 02:55:14.161557+00,,,,pending,false,false,
75953a37-0af7-4dd6-9a82-86abf18bd581,Lodge Pennant Hills No. 905,lodge,,,,,,,2025-06-17 06:07:28.621358+00,2025-06-17 06:07:28.621358+00,,,,pending,false,false,
f7ce5a9f-a6c6-4686-9c1b-bae5cda1114c,Plaridel No. 777,lodge,,,,,Australia,,2025-06-17 07:09:24.951395+00,2025-06-17 07:09:24.951395+00,,,,pending,false,false,
18a04777-0810-3096-99d7-e4bbeadd6ce9,Lodge Illawarra No. 59,lodge,Wollongong Masonic Centre,,,,,,2025-05-01 12:51:16.416138+00,2025-05-01 12:51:16.416138+00,,,,pending,false,false,
62f75269-dcc1-4f5c-81e7-4d9314aa41dd,Lorraine No. 141,lodge,,,,,Canada,,2025-06-08 17:55:21.39387+00,2025-06-08 17:55:21.39387+00,,,,pending,false,false,
18c5844a-a22f-4fa1-a45a-4a3761ccb453,Norberto S Amoranto lodge  No. 358,lodge,,,,,Philippines,,2025-06-09 03:34:48.753314+00,2025-06-09 03:34:48.753314+00,,,,pending,false,false,
ffbc6739-a164-499b-9288-7cd36cf61696,The Leichhardt Lodge No. 133,lodge,,,,,,,2025-06-12 22:40:43.498665+00,2025-06-12 22:40:43.498665+00,,,,pending,false,false,
8344df9f-4a9a-4f8f-90e1-dd729ccfd910,Grand Lodge of Kentucky,grandlodge,,,Kentucky,,United States,,2025-06-15 13:02:02.101031+00,2025-06-15 13:02:02.101031+00,GLKY,GLKY,,pending,false,false,
c773717b-4e35-47b5-a2a6-14a6eec8a953,Grand Lodge of Louisiana,grandlodge,,,Louisiana,,United States,,2025-06-15 13:02:02.101031+00,2025-06-15 13:02:02.101031+00,GLLA,GLLA,,pending,false,false,
d4070787-38c0-4c1a-9475-21374e301d04,Grand Lodge of Maine,grandlodge,,,Maine,,United States,,2025-06-15 13:02:02.101031+00,2025-06-15 13:02:02.101031+00,GLME,GLME,,pending,false,false,
c2379d1a-201b-4b13-b62e-34b9da84d08b,Grand Lodge of Maryland,grandlodge,,,Maryland,,United States,,2025-06-15 13:02:02.101031+00,2025-06-15 13:02:02.101031+00,GLMD,GLMD,,pending,false,false,
e1a29c62-6b09-419d-b4c5-40d24eb464d4,Grand Lodge of Massachusetts,grandlodge,,,Massachusetts,,United States,,2025-06-15 13:02:02.101031+00,2025-06-15 13:02:02.101031+00,GLMA,GLMA,,pending,false,false,
1322b8b1-6a7e-4653-a050-89cf0252c686,Grand Lodge of Michigan,grandlodge,,,Michigan,,United States,,2025-06-15 13:02:02.101031+00,2025-06-15 13:02:02.101031+00,GLMI,GLMI,,pending,false,false,
8f1d07b0-662b-40db-8119-e23a8a01f53f,Grand Lodge of Minnesota,grandlodge,,,Minnesota,,United States,,2025-06-15 13:02:02.101031+00,2025-06-15 13:02:02.101031+00,GLMN,GLMN,,pending,false,false,
51a1988b-1cf4-4b20-9a55-c85bcf63e645,Grand Lodge of Mississippi,grandlodge,,,Mississippi,,United States,,2025-06-15 13:02:02.101031+00,2025-06-15 13:02:02.101031+00,GLMS,GLMS,,pending,false,false,
3af8a6a8-1ed0-4739-a945-88b70e8c4ea4,Grand Lodge of Missouri,grandlodge,,,Missouri,,United States,,2025-06-15 13:02:02.101031+00,2025-06-15 13:02:02.101031+00,GLMO,GLMO,,pending,false,false,
c7d9ba2a-42f2-408e-8c92-240689939a24,Grand Lodge of Montana,grandlodge,,,Montana,,United States,,2025-06-15 13:02:02.101031+00,2025-06-15 13:02:02.101031+00,GLMT,GLMT,,pending,false,false,
9f404312-463f-488b-9920-0edcc2d616e9,Grand Lodge of Nebraska,grandlodge,,,Nebraska,,United States,,2025-06-15 13:02:02.101031+00,2025-06-15 13:02:02.101031+00,GLNE,GLNE,,pending,false,false,
115b48ec-c3c3-42b2-b8d4-4a56be97e9ff,Grand Lodge of Nevada,grandlodge,,,Nevada,,United States,,2025-06-15 13:02:02.101031+00,2025-06-15 13:02:02.101031+00,GLNV,GLNV,,pending,false,false,
7ee70096-fc74-4dc5-95a1-b4e0770c5b60,Grand Lodge of New Hampshire,grandlodge,,,New Hampshire,,United States,,2025-06-15 13:02:02.101031+00,2025-06-15 13:02:02.101031+00,GLNH,GLNH,,pending,false,false,
965c71ce-1e5e-410e-b883-f90b5187e555,Grand Lodge of New Jersey,grandlodge,,,New Jersey,,United States,,2025-06-15 13:02:02.101031+00,2025-06-15 13:02:02.101031+00,GLNJ,GLNJ,,pending,false,false,
e9f262c4-a1ba-4f2e-b1e2-9087021eabe5,Grand Lodge of New Mexico,grandlodge,,,New Mexico,,United States,,2025-06-15 13:02:02.101031+00,2025-06-15 13:02:02.101031+00,GLNM,GLNM,,pending,false,false,
53af705a-2c30-4644-b1b4-67f1d5310d49,Grand Lodge of Costa Rica,grandlodge,,,,,Costa Rica,,2025-06-15 22:56:24.514051+00,2025-06-15 22:56:24.514051+00,GLCR,GLCR,,pending,false,false,
a5b315cb-d8b1-44ab-9a4c-2c8c8be85755,Grand Lodge of Cuba,grandlodge,,,,,Cuba,,2025-06-15 22:56:24.514051+00,2025-06-15 22:56:24.514051+00,GLC,GLC,,pending,false,false,
d8d8af1c-3346-4018-b1f3-45c2e2404ba0,Grand Lodge of Puerto Rico,grandlodge,,,,,Puerto Rico,,2025-06-15 22:56:24.514051+00,2025-06-15 22:56:24.514051+00,GLPR,GLPR,,pending,false,false,
8b91943a-91a6-4d95-8b11-2bf1be0f0c1f,Prince Hall Grand Lodge of the Commonwealth of the Bahamas,grandlodge,,,,,Bahamas,,2025-06-15 22:56:24.514051+00,2025-06-15 22:56:24.514051+00,PHGLB,PHGLB,,pending,false,false,
267f8895-8014-4137-ab69-af391c46d88f,Prince Hall Grand Lodge of the Caribbean and Jurisdiction,grandlodge,,,,,Caribbean,,2025-06-15 22:56:24.514051+00,2025-06-15 22:56:24.514051+00,PHGLC,PHGLC,,pending,false,false,
2d7dda46-a26b-42e6-aede-00375e080750,Grand Lodge of the State of Baja California,grandlodge,,,Baja California,,Mexico,,2025-06-15 22:56:24.514051+00,2025-06-15 22:56:24.514051+00,GLBC,GLBC,,pending,false,false,
c470bd28-caaf-4af7-93cd-6158c858d056,Grand Lodge Benemérito Ejército de Oriente of the State of Puebla,grandlodge,,,Puebla,,Mexico,,2025-06-15 22:56:24.514051+00,2025-06-15 22:56:24.514051+00,GLBEOP,GLBEOP,,pending,false,false,
4b8f77dd-df16-49b2-92e5-bc199a87da42,York Grand Lodge of Mexico,grandlodge,,,,,Mexico,,2025-06-15 22:56:24.514051+00,2025-06-15 22:56:24.514051+00,YGLM,YGLM,,pending,false,false,
c2ab17b0-f000-4eb2-b5fe-9fa2d29a704c,Grand Lodge of Argentina,grandlodge,,,,,Argentina,,2025-06-15 22:56:24.514051+00,2025-06-15 22:56:24.514051+00,GLA,GLA,,pending,false,false,
24c6f267-c629-4208-8d92-46a2f76bb09d,Grand Lodge of Chile,grandlodge,,,,,Chile,,2025-06-15 22:56:24.514051+00,2025-06-15 22:56:24.514051+00,GLC,GLC,,pending,false,false,
cde6a477-a1f7-491c-95c4-6994eadd7dea,Grand Lodge of Ecuador,grandlodge,,,,,Ecuador,,2025-06-15 22:56:24.514051+00,2025-06-15 22:56:24.514051+00,GLE,GLE,,pending,false,false,
a7883416-4973-4eb5-aae6-993eba99f991,Symbolic Grand Lodge of Paraguay,grandlodge,,,,,Paraguay,,2025-06-15 22:56:24.514051+00,2025-06-15 22:56:24.514051+00,SGLP,SGLP,,pending,false,false,
18b89bc4-4880-4493-8544-e53dde8bd60a,Grand Lodge of Peru,grandlodge,,,,,Peru,,2025-06-15 22:56:24.514051+00,2025-06-15 22:56:24.514051+00,GLP,GLP,,pending,false,false,
3459fd11-e61d-4437-bee0-628efb40485c,Grand Lodge of Uruguay,grandlodge,,,,,Uruguay,,2025-06-15 22:56:24.514051+00,2025-06-15 22:56:24.514051+00,GLU,GLU,,pending,false,false,
2dd2d69f-b80d-4bb6-b542-59d4fb351c11,Grand Lodge of the Republic of Venezuela,grandlodge,,,,,Venezuela,,2025-06-15 22:56:24.514051+00,2025-06-15 22:56:24.514051+00,GLRV,GLRV,,pending,false,false,
5d1fbe58-241b-46c2-ac4e-c627ac9cee74,The Lodge Of Transition No. 9999,lodge,,,,,,,2025-06-16 17:32:01.77965+00,2025-06-16 17:32:01.77965+00,,,,pending,false,false,
c68475ee-f675-48f2-a38f-058b815ed85d,Lodge Horace Thompson Ryde No. 134,lodge,,,,,,,2025-06-17 03:14:09.211544+00,2025-06-17 03:14:09.211544+00,,,,pending,false,false,
76cc23ca-7f52-40cb-a8fd-fcb8907bdc8b,The Cedars Lodge No. 1041,lodge,,,,,,,2025-06-17 06:11:30.708403+00,2025-06-17 06:11:30.708403+00,,,,pending,false,false,
bb4aefb9-6356-4546-b889-ccf8b8316aba,Australian Lodge of Fidelity No. 101,lodge,,,,,,,2025-06-17 07:18:29.097258+00,2025-06-17 07:18:29.097258+00,,,,pending,false,false,
e59d3b9c-b9f2-4662-ae4d-9f87ee491ead,The Leichhardt Lodge No. 133,lodge,,,,,,,2025-06-17 15:12:00.132717+00,2025-06-17 15:12:00.132717+00,,,,pending,false,false,
2b05426d-c1a7-4de7-b314-9faf99e8ad12,Norberto S Amoranto No. 358,lodge,,,,,Philippines,,2025-06-21 04:14:18.888645+00,2025-06-21 04:14:18.888645+00,,,,pending,false,false,
dfd310f8-2162-3b4e-2d5e-04b3a026cb45,Lodge 229,lodge,Orchard Hills Masonic Centre,,,,,,2025-05-01 12:51:16.416138+00,2025-05-01 12:51:16.416138+00,,,,pending,false,false,
467ebd3c-fe23-d922-cbcb-c9fd2bcdc560,Lodge 16,lodge,Deniliquin,,,,,,2025-05-01 12:51:16.416138+00,2025-05-01 12:51:16.416138+00,,,,pending,false,false,
6262c9cc-400a-abce-d62b-25331a0a5e78,Lodge 1,lodge,,,,,,,2025-05-01 12:51:16.416138+00,2025-05-01 12:51:16.416138+00,,,,pending,false,false,
cc2d01b3-c856-ccca-e149-aa80c05e9736,Lodge Young Burrangong No. 20,lodge,Young Masonic Centre,,,,,,2025-05-01 12:51:16.416138+00,2025-05-01 12:51:16.416138+00,,,,pending,false,false,
353cf669-ba36-cd93-3aca-24320a4d0140,The Yass Lodge Of Concord No. 27,lodge,Yass Masonic Centre,,,,,,2025-05-01 12:51:16.416138+00,2025-05-01 12:51:16.416138+00,,,,pending,false,false,
34d965f2-4d97-69f9-23a0-58134bea5860,Lodge Toukley No. 933,lodge,Wyong Masonic Centre,,,,,,2025-05-01 12:51:16.416138+00,2025-05-01 12:51:16.416138+00,,,,pending,false,false,
3350c130-425e-68a7-acc2-5ec718e36e8c,Lodge Wyong Tuggerah Lakes No. 247,lodge,Wyong Masonic Centre,,,,,,2025-05-01 12:51:16.416138+00,2025-05-01 12:51:16.416138+00,,,,pending,false,false,
ff778c00-965f-bde6-8530-3e1a04def029,Lodge Urara-Woolgoolga No. 469,lodge,Woolgoolga Masonic Centre,,,,,,2025-05-01 12:51:16.416138+00,2025-05-01 12:51:16.416138+00,,,,pending,false,false,
898ca5b4-6c13-ca7b-3644-81c876cf727e,Lodge Theo Grey No. 234,lodge,Wollongong Masonic Centre,,,,,,2025-05-01 12:51:16.416138+00,2025-05-01 12:51:16.416138+00,,,,pending,false,false,
24606b8b-a546-25e8-a15d-189724575b7d,The City of Wollongong Lodge No. 1049,lodge,Wollongong Masonic Centre,,,,,,2025-05-01 12:51:16.416138+00,2025-05-01 12:51:16.416138+00,,,,pending,false,false,
3a6a3a38-c3f8-2817-a6b7-56540ae54637,Lodge Cowper No. 295,lodge,Wingham,,,,,,2025-05-01 12:51:16.416138+00,2025-05-01 12:51:16.416138+00,,,,pending,false,false,
f774bd76-d860-8287-20d0-6425803fefbd,Lodge Weston-Kurri Kurri No. 253,lodge,Weston Masonic Centre,,,,,,2025-05-01 12:51:16.416138+00,2025-05-01 12:51:16.416138+00,,,,pending,false,false,
bab60a97-529c-99ec-9765-2f4034c0d7ef,Lodge Bland No. 337,lodge,West Wyalong,,,,,,2025-05-01 12:51:16.416138+00,2025-05-01 12:51:16.416138+00,,,,pending,false,false,
1be76429-9866-0b3d-6679-4f667f1241ab,Lodge St James No. 45,lodge,Wallsend Masonic Centre,,,,,,2025-05-01 12:51:16.416138+00,2025-05-01 12:51:16.416138+00,,,,pending,false,false,
db233790-7d8c-037b-ebc3-5a5fc90d0cd5,Port Macquarie Daylight Lodge No. 991,lodge,Wauchope Masonic Centre,,,,,,2025-05-01 12:51:16.416138+00,2025-05-01 12:51:16.416138+00,,,,pending,false,false,
1d7c0423-94ca-0f0d-c59d-118d33b8e374,Lodge Star Of Wauchope No. 310,lodge,Wauchope Masonic Centre,,,,,,2025-05-01 12:51:16.416138+00,2025-05-01 12:51:16.416138+00,,,,pending,false,false,
ba833e84-7c13-c09e-7773-cb862215d30b,Lodge Novacastria No. 765,lodge,Warners Bay Masonic Centre Ltd,,,,,,2025-05-01 12:51:16.416138+00,2025-05-01 12:51:16.416138+00,,,,pending,false,false,
83ae926c-f07f-b137-e937-af07768e5e50,Lodge City of Newcastle No. 170,lodge,Warners Bay Masonic Centre Ltd,,,,,,2025-05-01 12:51:16.416138+00,2025-05-01 12:51:16.416138+00,,,,pending,false,false,
23e305e7-90c7-92a8-2659-f3fb4eb3df41,Lodge Wagga Wagga No. 22,lodge,Wagga Wagga,,,,,,2025-05-01 12:51:16.416138+00,2025-05-01 12:51:16.416138+00,,,,pending,false,false,
e6e7f457-5615-464c-425c-c32a688c73de,Lodge of Peace No. 120,lodge,Uralla Masonic Centre,,,,,,2025-05-01 12:51:16.416138+00,2025-05-01 12:51:16.416138+00,,,,pending,false,false,
c6261030-4a30-1b0f-394f-1e0ab9cf4cf1,Lodge Pacific No. 298,lodge,Twin Towns Masonic Centre Pty Ltd,,,,,,2025-05-01 12:51:16.416138+00,2025-05-01 12:51:16.416138+00,,,,pending,false,false,
84364442-4e65-92bc-a757-124fb3d0d9c6,Lodge Dawn No. 511,lodge,Twin Towns Masonic Centre Pty Ltd,,,,,,2025-05-01 12:51:16.416138+00,2025-05-01 12:51:16.416138+00,,,,pending,false,false,
5a0494dd-334e-c68a-d870-c7ee834fad7f,Tweed Daylight Lodge No. 136,lodge,Twin Towns Masonic Centre Pty Ltd,,,,,,2025-05-01 12:51:16.416138+00,2025-05-01 12:51:16.416138+00,,,,pending,false,false,
fd88e098-4d6f-d8c2-db46-cdc1595f614c,Lodge Ku-Ring-Gai No. 1033,lodge,Turramurra,,,,,,2025-05-01 12:51:16.416138+00,2025-05-01 12:51:16.416138+00,,,,pending,false,false,
c1277187-67ac-4fc7-1d45-d840262faa35,Lodge Hornsby No. 262,lodge,Turramurra,,,,,,2025-05-01 12:51:16.416138+00,2025-05-01 12:51:16.416138+00,,,,pending,false,false,
bbe99e82-c3af-f48f-92a9-010c83230a74,Lodge Frank Mcdowell - Lindfield No. 362,lodge,Turramurra,,,,,,2025-05-01 12:51:16.416138+00,2025-05-01 12:51:16.416138+00,,,,pending,false,false,
96e12aa2-09d4-45d7-6c27-5c0e305c9ebe,Lodge Wahroonga No. 674,lodge,Turramurra,,,,,,2025-05-01 12:51:16.416138+00,2025-05-01 12:51:16.416138+00,,,,pending,false,false,
5e7f7936-6737-479c-dc04-2248087980af,Lodge Lake Macquarie No. 243,lodge,Toronto Masonic Centre,,,,,,2025-05-01 12:51:16.416138+00,2025-05-01 12:51:16.416138+00,,,,pending,false,false,
56e3d97d-d550-8c36-db66-40a9b350b41b,Lodge Morisset No. 441,lodge,Toronto Masonic Centre,,,,,,2025-05-01 12:51:16.416138+00,2025-05-01 12:51:16.416138+00,,,,pending,false,false,
c1fe4447-58ff-e0fe-4e50-d927ca786237,Lodge Temora No. 168,lodge,Temora Masonic Centre,,,,,,2025-05-01 12:51:16.416138+00,2025-05-01 12:51:16.416138+00,,,,pending,false,false,
d2dc069e-2295-dc7c-1bae-a5add69f8911,Lodge Greater Taree No. 66,lodge,Taree,,,,,,2025-05-01 12:51:16.416138+00,2025-05-01 12:51:16.416138+00,,,,pending,false,false,
81adfce4-99c4-64f9-8584-417cc9ed16c0,Union Lodge No. 28,lodge,Tamworth Masonic Centre,,,,,,2025-05-01 12:51:16.416138+00,2025-05-01 12:51:16.416138+00,,,,pending,false,false,
33d0d837-7364-30f0-2187-e65575b2596d,Lodge Liverpool Plains No. 191,lodge,Tamworth Masonic Centre,,,,,,2025-05-01 12:51:16.416138+00,2025-05-01 12:51:16.416138+00,,,,pending,false,false,
fe0dab5a-18e5-4bb9-2b61-689c96bf443c,Lodge Southern Cross No. 91,lodge,Sydney Masonic Centre,,,,,,2025-05-01 12:51:16.416138+00,2025-05-01 12:51:16.416138+00,,,,pending,false,false,
fc3456bd-00b9-3862-fb75-2f92d7d94928,The Prince Charles Edward Stuart Lodge No. 1745,lodge,Sydney Masonic Centre,,,,,,2025-05-01 12:51:16.416138+00,2025-05-01 12:51:16.416138+00,,,,pending,false,false,
f348efb3-e869-3288-647a-f12dbb91a4c0,Lodge Ionic No. 65,lodge,Sydney Masonic Centre,,,,,,2025-05-01 12:51:16.416138+00,2025-05-01 12:51:16.416138+00,,,,pending,false,false,
cc2b4235-19fa-3f7e-98c3-2bee90f6603c,Lodge France No. 1021,lodge,Sydney Masonic Centre,,,,,,2025-05-01 12:51:16.416138+00,2025-05-01 12:51:16.416138+00,,,,pending,false,false,
bbddf800-b4e8-04cc-0aa9-dcbb6a0655a1,Lodge Trinitarian No. 978,lodge,Sydney Masonic Centre,,,,,,2025-05-01 12:51:16.416138+00,2025-05-01 12:51:16.416138+00,,,,pending,false,false,
acd76d19-368e-1265-ea82-9eadd5d0373d,Lodge Army and Navy No. 517,lodge,Sydney Masonic Centre,,,,,,2025-05-01 12:51:16.416138+00,2025-05-01 12:51:16.416138+00,,,,pending,false,false,
83d4123e-b479-9343-e6cb-4658cb230624,The Sydney Lodge No. 1020,lodge,Sydney Masonic Centre,,,,,,2025-05-01 12:51:16.416138+00,2025-05-01 12:51:16.416138+00,,,,pending,false,false,
7ec4b2f5-60cb-9acc-aafd-3ee51923d9a2,The Discovery Lodge of Research No. 971,lodge,Sydney Masonic Centre,,,,,,2025-05-01 12:51:16.416138+00,2025-05-01 12:51:16.416138+00,,,,pending,false,false,
7b1a4789-002d-9ec9-a830-1826c910c874,Lodge University of Sydney No. 544,lodge,Sydney Masonic Centre,,,,,,2025-05-01 12:51:16.416138+00,2025-05-01 12:51:16.416138+00,,,,pending,false,false,
736d5121-91dc-6a2a-5618-3429fb7a3857,Lodge Zetland Of Australia No. 9,lodge,Sydney Masonic Centre,,,,,,2025-05-01 12:51:16.416138+00,2025-05-01 12:51:16.416138+00,,,,pending,false,false,
6fb7a9f6-ce4a-743f-c657-4dbf742184be,Lodge Horizons No. 1032,lodge,Sydney Masonic Centre,,,,,,2025-05-01 12:51:16.416138+00,2025-05-01 12:51:16.416138+00,,,,pending,false,false,
6cf6e4b4-af37-2330-c855-c6420433fa0c,Lodge Miguel De Cervantes No. 1038,lodge,Sydney Masonic Centre,,,,,,2025-05-01 12:51:16.416138+00,2025-05-01 12:51:16.416138+00,,,,pending,false,false,
67d8ade4-f8fd-83d5-dc9e-95ea0d4c6bd3,Lodge Jerusalem No. 1056,lodge,Sydney Masonic Centre,,,,,,2025-05-01 12:51:16.416138+00,2025-05-01 12:51:16.416138+00,,,,pending,false,false,
6539e8d0-7937-d890-ddcc-1347484d0c62,Lodge Antiquity No. 1,lodge,Sydney Masonic Centre,,,,,,2025-05-01 12:51:16.416138+00,2025-05-01 12:51:16.416138+00,,,,pending,false,false,
5f52eff7-b95f-3c2a-bdf8-acd3876aa292,Lodge Castlereagh No. 72,lodge,Sydney Masonic Centre,,,,,,2025-05-01 12:51:16.416138+00,2025-05-01 12:51:16.416138+00,,,,pending,false,false,
5c0b9ab7-6112-97b1-223b-62b7cf57c45b,The Lodge Of Transition No. 9999,lodge,Sydney Masonic Centre,,,,,,2025-05-01 12:51:16.416138+00,2025-05-01 12:51:16.416138+00,,,,pending,false,false,
297dfab5-897c-abf3-a7e4-30d264d0d59e,Lodge Germania No. 1036,lodge,Sydney Masonic Centre,,,,,,2025-05-01 12:51:16.416138+00,2025-05-01 12:51:16.416138+00,,,,pending,false,false,
1773df23-996f-c335-9c09-3302b4a53945,Lodge Galileo No. 1019,lodge,Sydney Masonic Centre,,,,,,2025-05-01 12:51:16.416138+00,2025-05-01 12:51:16.416138+00,,,,pending,false,false,
1391a4ef-5404-e0ad-2fbd-27b3b1239a75,The Lodge Of Tranquillity No. 42,lodge,Sydney Masonic Centre,,,,,,2025-05-01 12:51:16.416138+00,2025-05-01 12:51:16.416138+00,,,,pending,false,false,
0d1db46e-b106-4cd2-82c9-8bbdc94fd769,The Lodge Of Australia No. 3,lodge,Sydney Masonic Centre,,,,,,2025-05-01 12:51:16.416138+00,2025-05-01 12:51:16.416138+00,,,,pending,false,false,
08b574bc-0149-1af6-8494-c7dab8f6fd2d,The Royal Empire Lodge No. 613,lodge,Sydney Masonic Centre,,,,,,2025-05-01 12:51:16.416138+00,2025-05-01 12:51:16.416138+00,,,,pending,false,false,
bd462218-d254-da76-a8b8-8b96e5641b7a,Lodge Kirrawee No. 903,lodge,Sutherland Masonic Centre,,,,,,2025-05-01 12:51:16.416138+00,2025-05-01 12:51:16.416138+00,,,,pending,false,false,
3d62560f-69ca-8460-7c1e-f499a53d901d,Lodge Sylvania No. 853,lodge,Sutherland Masonic Centre,,,,,,2025-05-01 12:51:16.416138+00,2025-05-01 12:51:16.416138+00,,,,pending,false,false,
8eacaa01-06e7-ae86-42f3-9e74400e89b4,Lodge United St Andrew Singleton No. 34,lodge,Singleton,,,,,,2025-05-01 12:51:16.416138+00,2025-05-01 12:51:16.416138+00,,,,pending,false,false,
48f854e0-2783-b623-2a8c-c577f4e24620,Lodge Scone No. 183,lodge,Scone Masonic Centre,,,,,,2025-05-01 12:51:16.416138+00,2025-05-01 12:51:16.416138+00,,,,pending,false,false,
b3dbeeaa-3cd1-721e-2a61-9cec5d9a8160,Lodge Horace Thompson Ryde No. 134,lodge,Ryde Masonic Centre,,,,,,2025-05-01 12:51:16.416138+00,2025-05-01 12:51:16.416138+00,,,,pending,false,false,
a3dde9fa-41e6-ee39-175c-aae843383266,Lodge Pennant Hills No. 905,lodge,Ryde Masonic Centre,,,,,,2025-05-01 12:51:16.416138+00,2025-05-01 12:51:16.416138+00,,,,pending,false,false,
e4546bec-9797-3059-f1cb-cc0a3acfeaa2,Lodge Armidale No. 641,lodge,RFBI Armidale Masonic Village,,,,,,2025-05-01 12:51:16.416138+00,2025-05-01 12:51:16.416138+00,,,,pending,false,false,
213ddf08-b60d-be11-103a-6a782e3eff0e,Lodge Unity No. 6,lodge,RFBI Armidale Masonic Village,,,,,,2025-05-01 12:51:16.416138+00,2025-05-01 12:51:16.416138+00,,,,pending,false,false,
321fa55d-eae9-84ec-7d3e-d09f9e5a0003,Lodge Queanbeyan St Andrew No. 56,lodge,Queanbeyan Masonic Centre,,,,,,2025-05-01 12:51:16.416138+00,2025-05-01 12:51:16.416138+00,,,,pending,false,false,
67933407-f9fa-0618-3e07-57774f34c9e7,Lodge Independent Lewis No. 346,lodge,Portland,,,,,,2025-05-01 12:51:16.416138+00,2025-05-01 12:51:16.416138+00,,,,pending,false,false,
fe114db7-d5f7-96ef-5a4e-391149855726,Lodge Cornucopia No. 1037,lodge,Port Stephens Council Tomaree Library and Community Centre,,,,,,2025-05-01 12:51:16.416138+00,2025-05-01 12:51:16.416138+00,,,,pending,false,false,
1e2af235-3531-9703-2227-f1daafaffddd,Lodge Picton No. 258,lodge,Picton Masonic Centre,,,,,,2025-05-01 12:51:16.416138+00,2025-05-01 12:51:16.416138+00,,,,pending,false,false,
f19a04bd-1ae2-2fe2-4153-5d7bf9f32867,Lodge Hellenic Arcadia No. 177,lodge,Petersham,,,,,,2025-05-01 12:51:16.416138+00,2025-05-01 12:51:16.416138+00,,,,pending,false,false,
e8763786-a4a0-327c-8e57-a693d75e4847,Australian Lodge Of Harmony No. 5,lodge,Petersham,,,,,,2025-05-01 12:51:16.416138+00,2025-05-01 12:51:16.416138+00,,,,pending,false,false,
dde2f70f-6ef0-a0f3-acfd-10f4c0885c28,The Cedars Lodge No. 1041,lodge,Petersham,,,,,,2025-05-01 12:51:16.416138+00,2025-05-01 12:51:16.416138+00,,,,pending,false,false,
c8e2f6e4-8e78-c39c-5d9d-44a82f9f1f64,Lodge Dunblane Australis No. 966,lodge,Petersham,,,,,,2025-05-01 12:51:16.416138+00,2025-05-01 12:51:16.416138+00,,,,pending,false,false,
c4650c9b-1725-9718-e2c9-301800be1c5e,Lodge Education No. 814,lodge,Petersham,,,,,,2025-05-01 12:51:16.416138+00,2025-05-01 12:51:16.416138+00,,,,pending,false,false,
a7fe383e-ff19-c44a-e7b2-1c2e3d50d569,Lodge Hurlstone Park United No. 288,lodge,Petersham,,,,,,2025-05-01 12:51:16.416138+00,2025-05-01 12:51:16.416138+00,,,,pending,false,false,
99a7aac5-fa37-e2e9-491a-4368437e25f6,Lodge Thespian No. 256,lodge,Petersham,,,,,,2025-05-01 12:51:16.416138+00,2025-05-01 12:51:16.416138+00,,,,pending,false,false,
6a2b56ec-fada-7c96-ba00-d066bedc056f,Australian Lodge of Fidelity No. 101,lodge,Petersham,,,,,,2025-05-01 12:51:16.416138+00,2025-05-01 12:51:16.416138+00,,,,pending,false,false,
5367527a-7220-f228-3297-31484e3f5344,Lodge Trinity No. 666,lodge,Petersham,,,,,,2025-05-01 12:51:16.416138+00,2025-05-01 12:51:16.416138+00,,,,pending,false,false,
51151887-6630-42b5-1002-096cdaa61163,Lodge Toxteth No. 1052,lodge,Petersham,,,,,,2025-05-01 12:51:16.416138+00,2025-05-01 12:51:16.416138+00,,,,pending,false,false,
4be6bec3-6535-f349-63bb-7930300f2440,The United Lodge of Sydney No. 11,lodge,Petersham,,,,,,2025-05-01 12:51:16.416138+00,2025-05-01 12:51:16.416138+00,,,,pending,false,false,
299f87f2-01fe-614f-dac8-7d8657273ed8,The Baden-Powell Lodge of NSW No. 1051,lodge,Petersham,,,,,,2025-05-01 12:51:16.416138+00,2025-05-01 12:51:16.416138+00,,,,pending,false,false,
db2254f1-b253-abe2-7d14-2f0278636582,Lodge Paxton No. 608,lodge,Paxton,,,,,,2025-05-01 12:51:16.416138+00,2025-05-01 12:51:16.416138+00,,,,pending,false,false,
8914b094-405f-92aa-896e-f62e853d570e,The Goldfields Lodge No. 40,lodge,Parkes,,,,,,2025-05-01 12:51:16.416138+00,2025-05-01 12:51:16.416138+00,,,,pending,false,false,
f8275988-5926-4dd4-dcbd-94b6a049db4c,Lodge Pambula Daylight No. 1000,lodge,Pambula Masonic Centre,,,,,,2025-05-01 12:51:16.416138+00,2025-05-01 12:51:16.416138+00,,,,pending,false,false,
d415f772-e69e-7304-ecbc-ff7e185e6b2c,Bundaleeah Daylight Lodge No. 992,lodge,Orchard Hills Masonic Centre,,,,,,2025-05-01 12:51:16.416138+00,2025-05-01 12:51:16.416138+00,,,,pending,false,false,
b6ddbcb6-dea1-0dd5-a272-7f25a2383e1e,Lodge Nepean No. 29,lodge,Orchard Hills Masonic Centre,,,,,,2025-05-01 12:51:16.416138+00,2025-05-01 12:51:16.416138+00,,,,pending,false,false,
aab77eb3-6829-e40e-7dd4-da5dda5222b5,Lodge Emu Plains No. 860,lodge,Orchard Hills Masonic Centre,,,,,,2025-05-01 12:51:16.416138+00,2025-05-01 12:51:16.416138+00,,,,pending,false,false,
62ca3b30-1753-24b8-657c-e240a274ecdf,Lodge Warragamba No. 541,lodge,Orchard Hills Masonic Centre,,,,,,2025-05-01 12:51:16.416138+00,2025-05-01 12:51:16.416138+00,,,,pending,false,false,
4752312b-0d3b-1f0f-022f-0532078c81a5,Lodge Canoblas Lewis No. 806,lodge,Orange Masonic Hall Limited,,,,,,2025-05-01 12:51:16.416138+00,2025-05-01 12:51:16.416138+00,,,,pending,false,false,
c2572712-3ab0-87aa-39d8-fcb7ae513bb2,Lodge Oatley No. 381,lodge,Oatley Masonic Centre,,,,,,2025-05-01 12:51:16.416138+00,2025-05-01 12:51:16.416138+00,,,,pending,false,false,
b5c66ed7-49cf-a358-0e72-12864e15f1c3,Lodge Woronora No. 414,lodge,Oatley Masonic Centre,,,,,,2025-05-01 12:51:16.416138+00,2025-05-01 12:51:16.416138+00,,,,pending,false,false,
8cd47b0f-fad0-f0ee-0bab-2a2fc277ec2b,Lodge Kilwinning No. 13,lodge,Oatley Masonic Centre,,,,,,2025-05-01 12:51:16.416138+00,2025-05-01 12:51:16.416138+00,,,,pending,false,false,
78d75754-bc4d-25a5-a046-cee0f83aa6c0,Lodge Verity No. 570,lodge,NSW Masonic Club (Meeting Place Only),,,,,,2025-05-01 12:51:16.416138+00,2025-05-01 12:51:16.416138+00,,,,pending,false,false,
ac958dd9-d49c-2490-62eb-2f52786d770c,Lodge Nowra Unity No. 60,lodge,Nowra Masonic Centre.,,,,,,2025-05-01 12:51:16.416138+00,2025-05-01 12:51:16.416138+00,,,,pending,false,false,
c6960a44-0b58-19d7-9dc2-2e66c02a4ec9,Lodge Frenchs Forest United No. 249,lodge,Northbridge Cammeray Masonic Hall Co Pty Ltd,,,,,,2025-05-01 12:51:16.416138+00,2025-05-01 12:51:16.416138+00,,,,pending,false,false,
5e91b877-c19a-d7f6-0692-3e51ca141c28,Lodge Highway No. 837,lodge,Northbridge Cammeray Masonic Hall Co Pty Ltd,,,,,,2025-05-01 12:51:16.416138+00,2025-05-01 12:51:16.416138+00,,,,pending,false,false,
3e5cd24f-c19c-ee65-20e3-48659f6cba97,Lodge Enterprise No. 400,lodge,New Lambton Masonic Centre,,,,,,2025-05-01 12:51:16.416138+00,2025-05-01 12:51:16.416138+00,,,,pending,false,false,
300b0cae-0f9d-fe4b-5660-a7ccef795609,Lodge Mayfield Daylight No. 493,lodge,New Lambton Masonic Centre,,,,,,2025-05-01 12:51:16.416138+00,2025-05-01 12:51:16.416138+00,,,,pending,false,false,
88e1d69c-f736-ac95-39fb-3db145e96a97,Lodge Tomaree No. 878,lodge,Nelson Bay Masonic Hall,,,,,,2025-05-01 12:51:16.416138+00,2025-05-01 12:51:16.416138+00,,,,pending,false,false,
8568a166-7b38-d9aa-131d-5a329380bc8a,Lodge Namoi No. 207,lodge,Narrabri Masonic Centre,,,,,,2025-05-01 12:51:16.416138+00,2025-05-01 12:51:16.416138+00,,,,pending,false,false,
8c3ff780-461f-850c-7bb7-1cd82603767a,Lodge Federal United No. 193,lodge,Murrumburrah Masonic Centre,,,,,,2025-05-01 12:51:16.416138+00,2025-05-01 12:51:16.416138+00,,,,pending,false,false,
45db74b4-2c20-4156-8247-bcaa236dd096,Lodge Edinburgh St John No. 38,lodge,Mudgee Masonic Centre Inc,,,,,,2025-05-01 12:51:16.416138+00,2025-05-01 12:51:16.416138+00,,,,pending,false,false,
d7df26b5-730b-2c87-1a0d-203d39ee863c,Lodge Carnarvon No. 172,lodge,Moss Vale,,,,,,2025-05-01 12:51:16.416138+00,2025-05-01 12:51:16.416138+00,,,,pending,false,false,
a17c321a-96ba-be41-20c5-9950165a403b,The Jubilee Southern Highlands Daylight Lodge No. 162,lodge,Moss Vale,,,,,,2025-05-01 12:51:16.416138+00,2025-05-01 12:51:16.416138+00,,,,pending,false,false,
6c15086b-a48c-ff81-5426-cfd4b1abe11a,Lodge Middle Harbour No. 85,lodge,Mosman Masonic Centre,,,,,,2025-05-01 12:51:16.416138+00,2025-05-01 12:51:16.416138+00,,,,pending,false,false,
f74c82e1-3cc3-ab19-db4e-9de1d45d27c1,Coeur De Lion - Narooma No. 84,lodge,Moruya Masonic Centre,,,,,,2025-05-01 12:51:16.416138+00,2025-05-01 12:51:16.416138+00,,,,pending,false,false,
55d001cc-da25-9eae-599f-5331d332ebcb,Lodge Eurobodalla Daylight No. 989,lodge,Moruya Masonic Centre,,,,,,2025-05-01 12:51:16.416138+00,2025-05-01 12:51:16.416138+00,,,,pending,false,false,
92e8d1ea-69f1-b632-16b4-719296dcc94a,Lodge Courallie No. 235,lodge,Moree Masonic Centre Incorporated,,,,,,2025-05-01 12:51:16.416138+00,2025-05-01 12:51:16.416138+00,,,,pending,false,false,
4ea8c13a-06e7-7a0f-3b35-9767ce7e9325,Lodge Milton No. 63,lodge,Milton Masonic Centre,,,,,,2025-05-01 12:51:16.416138+00,2025-05-01 12:51:16.416138+00,,,,pending,false,false,
82a55496-eab5-f105-7057-60411b6e9f8f,Lodge St Andrews No. 281,lodge,Manilla Masonic Centre,,,,,,2025-05-01 12:51:16.416138+00,2025-05-01 12:51:16.416138+00,,,,pending,false,false,
d0644b2d-873d-f0a8-0b73-a8170ee1020e,Wallis Plains No. 4,lodge,Maitland Masonic Centre,,,,,,2025-05-01 12:51:16.416138+00,2025-05-01 12:51:16.416138+00,,,,pending,false,false,
b2b671be-37e5-893d-9fae-fd8433d3212c,Lodge Honour No. 1054,lodge,Liverpool Masonic Centre,,,,,,2025-05-01 12:51:16.416138+00,2025-05-01 12:51:16.416138+00,,,,pending,false,false,
427844a7-ae87-220e-62ae-b7ddfaeec449,Lodge Guildford No. 321,lodge,Liverpool Masonic Centre,,,,,,2025-05-01 12:51:16.416138+00,2025-05-01 12:51:16.416138+00,,,,pending,false,false,
32af90da-51c5-76e2-b9a8-184e9527325f,Lodge Liverpool No. 197,lodge,Liverpool Masonic Centre,,,,,,2025-05-01 12:51:16.416138+00,2025-05-01 12:51:16.416138+00,,,,pending,false,false,
04335c71-9f6b-5e63-033f-8a59a5868042,Lodge Sydney St. George No. 269,lodge,Liverpool Masonic Centre,,,,,,2025-05-01 12:51:16.416138+00,2025-05-01 12:51:16.416138+00,,,,pending,false,false,
ce192270-beff-d1a4-42df-528485b145ac,The Northern Rivers Lodge No. 77,lodge,Lismore Masonic Centre Inc,,,,,,2025-05-01 12:51:16.416138+00,2025-05-01 12:51:16.416138+00,,,,pending,false,false,
925ced7b-7df4-d81e-8531-5b0fec6d2a2f,Lodge Leeton - Yanco No. 313,lodge,Leeton Masonic Centre,,,,,,2025-05-01 12:51:16.416138+00,2025-05-01 12:51:16.416138+00,,,,pending,false,false,
745951aa-dcf4-ee18-ca6b-1199fef733d6,Blue Mountains Unity No. 118,lodge,Lawson Masonic Centre,,,,,,2025-05-01 12:51:16.416138+00,2025-05-01 12:51:16.416138+00,,,,pending,false,false,
d411d62a-0ba8-d153-7abe-180647924aff,Lodge Harold Herman Unity No. 428,lodge,Laurelbank Masonic Centre Pty Ltd,,,,,,2025-05-01 12:51:16.416138+00,2025-05-01 12:51:16.416138+00,,,,pending,false,false,
8b3a5d45-3984-446d-ce3f-b3cb9587cb4d,Lodge F S Mance No. 671,lodge,Laurelbank Masonic Centre Pty Ltd,,,,,,2025-05-01 12:51:16.416138+00,2025-05-01 12:51:16.416138+00,,,,pending,false,false,
7f061912-50b1-fdfb-bd17-0d9db00e726f,Balmain Lodge No. 23,lodge,Laurelbank Masonic Centre Pty Ltd,,,,,,2025-05-01 12:51:16.416138+00,2025-05-01 12:51:16.416138+00,,,,pending,false,false,
5c6aa022-56be-5ad5-1cdf-4820fe0b70f0,The Schools Lodge No. 639,lodge,Laurelbank Masonic Centre Pty Ltd,,,,,,2025-05-01 12:51:16.416138+00,2025-05-01 12:51:16.416138+00,,,,pending,false,false,
08eb5850-c807-b4bf-6e9c-ac4987388a0e,Laurelbank Kuring-gai Daylight Lodge No. 230,lodge,Laurelbank Masonic Centre Pty Ltd,,,,,,2025-05-01 12:51:16.416138+00,2025-05-01 12:51:16.416138+00,,,,pending,false,false,
f0ddafda-48e9-eb92-9452-5b57bfbff43b,Lodge Kiama No. 35,lodge,Kiama Masonic Centre,,,,,,2025-05-01 12:51:16.416138+00,2025-05-01 12:51:16.416138+00,,,,pending,false,false,
e6fe86db-0914-6f56-c1b4-2613a089a4e2,Leisure Coast Daylight Lodge No. 999,lodge,Kiama Masonic Centre,,,,,,2025-05-01 12:51:16.416138+00,2025-05-01 12:51:16.416138+00,,,,pending,false,false,
d3b11399-5f29-0b78-3574-0913e11824c1,Lodge John Williams No. 148,lodge,Kensington Masonic Centre,,,,,,2025-05-01 12:51:16.416138+00,2025-05-01 12:51:16.416138+00,,,,pending,false,false,
6ea7b630-bf57-61fe-6ad0-4bb3bc855688,Lodge Kingsford Smith No. 1028,lodge,Kensington Masonic Centre,,,,,,2025-05-01 12:51:16.416138+00,2025-05-01 12:51:16.416138+00,,,,pending,false,false,
5a3ae0d8-6b2a-f77f-ccae-53bb35cef511,Lodge Kensington No. 270,lodge,Kensington Masonic Centre,,,,,,2025-05-01 12:51:16.416138+00,2025-05-01 12:51:16.416138+00,,,,pending,false,false,
85adfe48-1160-7de2-1bec-58ff487393c3,Lodge Loftus - Macleay No. 203,lodge,Kempsey Masonic Hall Co-Operative Ltd,,,,,,2025-05-01 12:51:16.416138+00,2025-05-01 12:51:16.416138+00,,,,pending,false,false,
fbbd8eec-f344-b55c-7a29-e66c54173afc,Lodge Bathurst United No. 79,lodge,Kelso Masonic Centre,,,,,,2025-05-01 12:51:16.416138+00,2025-05-01 12:51:16.416138+00,,,,pending,false,false,
77c25554-bd2a-fe2e-5267-a27d28df1897,Lodge Barham No. 561,lodge,Kelso Masonic Centre,,,,,,2025-05-01 12:51:16.416138+00,2025-05-01 12:51:16.416138+00,,,,pending,false,false,
6f2f8bce-8b2e-e2dc-9ad0-315b43c88201,Riverina Thompson No. 104,lodge,Jerilderie Masonic Centre,,,,,,2025-05-01 12:51:16.416138+00,2025-05-01 12:51:16.416138+00,,,,pending,false,false,
dbb2681f-0b71-9e1e-588e-979c8ee49e4a,Lodge Inverell No. 48,lodge,Inverell Club,,,,,,2025-05-01 12:51:16.416138+00,2025-05-01 12:51:16.416138+00,,,,pending,false,false,
ad924063-8433-db28-8518-85451925490d,Lodge Helensburgh No. 566,lodge,Helensburgh,,,,,,2025-05-01 12:51:16.416138+00,2025-05-01 12:51:16.416138+00,,,,pending,false,false,
b2843fcb-a6da-9089-5c4c-16bc30481698,The Hawkesbury Heritage Lodge No. 150,lodge,Hawkesbury Masonic Centre Inc,,,,,,2025-05-01 12:51:16.416138+00,2025-05-01 12:51:16.416138+00,,,,pending,false,false,
9407707c-7d58-945c-918f-425e6d3e0cae,Lodge Richard Coley No. 152,lodge,Hawkesbury Masonic Centre Inc,,,,,,2025-05-01 12:51:16.416138+00,2025-05-01 12:51:16.416138+00,,,,pending,false,false,
3be0ae93-689c-ac67-08c7-9003b2d3caba,Lodge Guyra No. 325,lodge,Guyra,,,,,,2025-05-01 12:51:16.416138+00,2025-05-01 12:51:16.416138+00,,,,pending,false,false,
6b18499c-93e1-25b7-e0d1-546d5d8cf9ca,Lodge Gundagai United No. 25,lodge,Gundagai,,,,,,2025-05-01 12:51:16.416138+00,2025-05-01 12:51:16.416138+00,,,,pending,false,false,
e7612cad-54be-f928-b22c-bcadda749471,Lodge Ibis No. 361,lodge,Griffith Masonic Centre,,,,,,2025-05-01 12:51:16.416138+00,2025-05-01 12:51:16.416138+00,,,,pending,false,false,
ade65d0f-c8f1-eb68-cadf-1668a9cbbe38,Lodge Prince Leopold No. 71,lodge,Grafton Masonic Centre Inc,,,,,,2025-05-01 12:51:16.416138+00,2025-05-01 12:51:16.416138+00,,,,pending,false,false,
3feddd1e-bd2f-ff04-0731-5e230e3e9f54,Lodge Ulmarra No. 186,lodge,Grafton Masonic Centre Inc,,,,,,2025-05-01 12:51:16.416138+00,2025-05-01 12:51:16.416138+00,,,,pending,false,false,
d7cf2e5a-8314-ed33-24b3-d6c5aad24d3c,The Goulburn Lodge of Australia No. 58,lodge,Goulburn Masonic Centre,,,,,,2025-05-01 12:51:16.416138+00,2025-05-01 12:51:16.416138+00,,,,pending,false,false,
4f094308-5889-4f0d-7a84-58155907f537,The Central Coast Lodge No. 2001,lodge,Gosford Masonic Centre,,,,,,2025-05-01 12:51:16.416138+00,2025-05-01 12:51:16.416138+00,,,,pending,false,false,
f19c3557-a920-f886-275b-ae5cb70496ab,Lodge Gloucester No. 291,lodge,Gloucester Masonic Centre,,,,,,2025-05-01 12:51:16.416138+00,2025-05-01 12:51:16.416138+00,,,,pending,false,false,
78620eb9-86db-e8ec-3183-387f47a107f7,The Glen Innes Lodge No. 44,lodge,Glen Innes Masonic Centre,,,,,,2025-05-01 12:51:16.416138+00,2025-05-01 12:51:16.416138+00,,,,pending,false,false,
478b082c-cacf-947e-3d1e-91ccfad9563e,Lodge Allan Stuart No. 416,lodge,Geurie Masonic Centre,,,,,,2025-05-01 12:51:16.416138+00,2025-05-01 12:51:16.416138+00,,,,pending,false,false,
68625985-22a2-a265-7e09-05ccd6a86075,Forster Great Lakes United No. 994,lodge,Forster Masonic Centre,,,,,,2025-05-01 12:51:16.416138+00,2025-05-01 12:51:16.416138+00,,,,pending,false,false,
8eaa16ee-df01-1c09-2313-759d2d7e5071,Lodge Celebration of Fairfield No. 345,lodge,Fairfield Masonic Centre,,,,,,2025-05-01 12:51:16.416138+00,2025-05-01 12:51:16.416138+00,,,,pending,false,false,
77c47fe8-6e73-35a0-cc86-95f13db289a0,Lodge Merrylands No. 479,lodge,Fairfield Masonic Centre,,,,,,2025-05-01 12:51:16.416138+00,2025-05-01 12:51:16.416138+00,,,,pending,false,false,
0ddb469a-acdc-56fd-d1be-95d7029b2b28,Lodge Eltham No. 272,lodge,Eltham Masonic Centre,,,,,,2025-05-01 12:51:16.416138+00,2025-05-01 12:51:16.416138+00,,,,pending,false,false,
0c1fedf2-d27c-21d4-e356-33c8fa7594f3,Hunter United No. 246,lodge,East Maitland Masonic Centre,,,,,,2025-05-01 12:51:16.416138+00,2025-05-01 12:51:16.416138+00,,,,pending,false,false,
ad68fe4e-a96f-0c20-56a2-630fd0ed4129,Lodge Macquarie No. 53,lodge,Dubbo,,,,,,2025-05-01 12:51:16.416138+00,2025-05-01 12:51:16.416138+00,,,,pending,false,false,
a028bfb6-d300-eafe-9622-b365eb83661f,Lodge Dubbo No. 906,lodge,Dubbo,,,,,,2025-05-01 12:51:16.416138+00,2025-05-01 12:51:16.416138+00,,,,pending,false,false,
91496a0b-279b-d717-3d9d-b25c244c2c79,Lodge Double Bay No. 331,lodge,Double Bay Masonic Centre,,,,,,2025-05-01 12:51:16.416138+00,2025-05-01 12:51:16.416138+00,,,,pending,false,false,
616cf681-e117-9ca1-d258-527a29993ec8,Lodge Mark Owen No. 828,lodge,Double Bay Masonic Centre,,,,,,2025-05-01 12:51:16.416138+00,2025-05-01 12:51:16.416138+00,,,,pending,false,false,
3f0fcb6a-3d4a-c0d9-996a-ac6cd14a01c4,Lodge Cronulla No. 312,lodge,Cronulla Masonic Centre,,,,,,2025-05-01 12:51:16.416138+00,2025-05-01 12:51:16.416138+00,,,,pending,false,false,
5b572e0d-1551-8b32-188e-370dba9a4171,Lodge Cowra No. 33,lodge,Cowra Masonic Centre,,,,,,2025-05-01 12:51:16.416138+00,2025-05-01 12:51:16.416138+00,,,,pending,false,false,
4729f5ca-0a6b-9800-6348-d6285d7b24de,Lodge Aviation No. 688,lodge,Cowra Masonic Centre,,,,,,2025-05-01 12:51:16.416138+00,2025-05-01 12:51:16.416138+00,,,,pending,false,false,
58ad0d24-b328-0495-28f9-3fe0300f6aca,Lodge Cooma Monaro No. 164,lodge,Cooma Masonic Centre,,,,,,2025-05-01 12:51:16.416138+00,2025-05-01 12:51:16.416138+00,,,,pending,false,false,
45beb896-7a84-6866-d1e8-ef1f334a76ac,Lodge Condobolin No. 185,lodge,Condobolin Masonic Centre,,,,,,2025-05-01 12:51:16.416138+00,2025-05-01 12:51:16.416138+00,,,,pending,false,false,
9a50e3ae-e526-cd07-348e-abbea750ca54,Lodge Challenge No. 284,lodge,Concord West,,,,,,2025-05-01 12:51:16.416138+00,2025-05-01 12:51:16.416138+00,,,,pending,false,false,
87cdf45e-df4b-320e-1885-c29290aac01d,Lodge Chelmsford Technology No. 261,lodge,Concord West,,,,,,2025-05-01 12:51:16.416138+00,2025-05-01 12:51:16.416138+00,,,,pending,false,false,
4c1479ba-cbaa-2072-f77a-87882c81f1be,The Leichhardt Lodge No. 133,lodge,Concord West,,,,,,2025-05-01 12:51:16.416138+00,2025-05-01 12:51:16.416138+00,,,,pending,false,false,
2514fe47-adf1-d969-13ac-a618f923f14a,Lodge Warringah No. 83,lodge,Collaroy,,,,,,2025-05-01 12:51:16.416138+00,2025-05-01 12:51:16.416138+00,,,,pending,false,false,
79b5cff1-2dea-3f24-76c5-e3de423a19b2,Coffs Harbour Daylight Lodge No. 1016,lodge,Coffs Harbour District Masonic Centre,,,,,,2025-05-01 12:51:16.416138+00,2025-05-01 12:51:16.416138+00,,,,pending,false,false,
14fee8fe-3e32-557c-4cb9-ac8fb4b1e518,Lodge Sawtell Twilight No. 741,lodge,Coffs Harbour District Masonic Centre,,,,,,2025-05-01 12:51:16.416138+00,2025-05-01 12:51:16.416138+00,,,,pending,false,false,
0e5b6999-3a34-a1fe-5543-5c0581dea187,Lodge Fitzroy No. 241,lodge,Coffs Harbour District Masonic Centre,,,,,,2025-05-01 12:51:16.416138+00,2025-05-01 12:51:16.416138+00,,,,pending,false,false,
c074929c-9c2a-1943-273d-8c9694417e42,Lodge Cessnock No. 252,lodge,Cessnock Masonic Properties Pty Ltd,,,,,,2025-05-01 12:51:16.416138+00,2025-05-01 12:51:16.416138+00,,,,pending,false,false,
e48f4b6c-be23-fc5d-42d7-95adc2cab1cb,Lodge Burnside No. 729,lodge,Castle Hill Masonic Centre,,,,,,2025-05-01 12:51:16.416138+00,2025-05-01 12:51:16.416138+00,,,,pending,false,false,
d77664ab-abc2-3ce4-46dd-54e3611de9f6,Parramatta City Daylight Lodge No. 1014,lodge,Castle Hill Masonic Centre,,,,,,2025-05-01 12:51:16.416138+00,2025-05-01 12:51:16.416138+00,,,,pending,false,false,
bea81f51-37e5-ca4f-90cb-1e9683f08789,Lodge Resurgo No. 223,lodge,Castle Hill Masonic Centre,,,,,,2025-05-01 12:51:16.416138+00,2025-05-01 12:51:16.416138+00,,,,pending,false,false,
afdf5008-1bd3-a059-4328-e182a7822ed0,Lodge Beecroft No. 359,lodge,Castle Hill Masonic Centre,,,,,,2025-05-01 12:51:16.416138+00,2025-05-01 12:51:16.416138+00,,,,pending,false,false,
7824b7fe-ae25-f0fb-ebf2-02f79e7d02e5,Lodge Millennium No. 2000,lodge,Castle Hill Masonic Centre,,,,,,2025-05-01 12:51:16.416138+00,2025-05-01 12:51:16.416138+00,,,,pending,false,false,
72640e58-e993-b1a3-5b6c-a05b56b6c8d5,Lodge Indus No. 1055,lodge,Castle Hill Masonic Centre,,,,,,2025-05-01 12:51:16.416138+00,2025-05-01 12:51:16.416138+00,,,,pending,false,false,
5c2d3266-0a5a-6923-d1eb-df2e767121a8,The Hills Lodge No. 1025,lodge,Castle Hill Masonic Centre,,,,,,2025-05-01 12:51:16.416138+00,2025-05-01 12:51:16.416138+00,,,,pending,false,false,
3ecb3e7e-a912-f8cc-cd40-ed689ae2a0f1,Lodge West Epping No. 390,lodge,Castle Hill Masonic Centre,,,,,,2025-05-01 12:51:16.416138+00,2025-05-01 12:51:16.416138+00,,,,pending,false,false,
0db9b84f-44f6-6f8b-4c70-a3420efc9d44,Lodge Jose Rizal No. 1045,lodge,Castle Hill Masonic Centre,,,,,,2025-05-01 12:51:16.416138+00,2025-05-01 12:51:16.416138+00,,,,pending,false,false,
91cc45e4-d7d5-d17d-8655-691722fe3c85,Lodge Canowindra No. 478,lodge,Canowindra,,,,,,2025-05-01 12:51:16.416138+00,2025-05-01 12:51:16.416138+00,,,,pending,false,false,
790a20eb-48e7-eb26-c3ab-33b6771838ae,Lodge Ethos No. 963,lodge,Canberra Masonic Centre,,,,,,2025-05-01 12:51:16.416138+00,2025-05-01 12:51:16.416138+00,,,,pending,false,false,
782fabcb-b493-4163-5aa1-02975ae220e2,Lodge Gowrie Of Canberra No. 715,lodge,Canberra Masonic Centre,,,,,,2025-05-01 12:51:16.416138+00,2025-05-01 12:51:16.416138+00,,,,pending,false,false,
762aa87e-0b3d-269b-eddf-f23fb88a6e29,Lodge Commonwealth Of Australia No. 633,lodge,Canberra Masonic Centre,,,,,,2025-05-01 12:51:16.416138+00,2025-05-01 12:51:16.416138+00,,,,pending,false,false,
5babb27e-e2d2-d15f-3939-631e450e1426,Lodge Canberra Unity No. 465,lodge,Canberra Masonic Centre,,,,,,2025-05-01 12:51:16.416138+00,2025-05-01 12:51:16.416138+00,,,,pending,false,false,
21a98161-546c-137e-dae6-3f56c5605064,Lodge Caledonia Of Canberra No. 938,lodge,Canberra Masonic Centre,,,,,,2025-05-01 12:51:16.416138+00,2025-05-01 12:51:16.416138+00,,,,pending,false,false,
2026cb26-d935-3e88-f4b4-dffac5395993,Lodge Canberra Daylight No. 1057,lodge,Canberra Masonic Centre,,,,,,2025-05-01 12:51:16.416138+00,2025-05-01 12:51:16.416138+00,,,,pending,false,false,
094d4bf9-f11d-4ed7-b4a8-cda8fa928205,Lodge Capitol No. 612,lodge,Canberra Masonic Centre,,,,,,2025-05-01 12:51:16.416138+00,2025-05-01 12:51:16.416138+00,,,,pending,false,false,
d82c2a20-89b1-fc8b-45bd-ca29479bccaf,The Lodge Federation No. 196,lodge,Camden Masonic Centre,,,,,,2025-05-01 12:51:16.416138+00,2025-05-01 12:51:16.416138+00,,,,pending,false,false,
32950d99-6c9d-1752-7d18-7620390b6cfa,Lodge Camden No. 217,lodge,Camden Masonic Centre,,,,,,2025-05-01 12:51:16.416138+00,2025-05-01 12:51:16.416138+00,,,,pending,false,false,
de1259e7-7af3-0cf2-6000-f0b622237028,Lodge Cavanbah No. 231,lodge,Byron Bay Masonic Centre Pty Ltd,,,,,,2025-05-01 12:51:16.416138+00,2025-05-01 12:51:16.416138+00,,,,pending,false,false,
a51d4558-637c-f155-6cd6-9f9daed55ae3,Lodge Bulli Thirroul No. 1040,lodge,Bulli Masonic Centre,,,,,,2025-05-01 12:51:16.416138+00,2025-05-01 12:51:16.416138+00,,,,pending,false,false,
af44e45f-e2fc-5fb3-6ad3-5f5af558daa4,Lodge Silver City No. 141,lodge,Broken Hill Masonic Centre Co Pty Ltd,,,,,,2025-05-01 12:51:16.416138+00,2025-05-01 12:51:16.416138+00,,,,pending,false,false,
01eac6b6-f27b-8349-8971-cb087b2b9606,Lodge of Truth No. 26,lodge,Braidwood Masonic Centre,,,,,,2025-05-01 12:51:16.416138+00,2025-05-01 12:51:16.416138+00,,,,pending,false,false,
ef47aee7-0c21-38ae-1d93-79d13f45f91e,Lodge Woollahra No. 341,lodge,Bondi Masonic Centre Pty Ltd,,,,,,2025-05-01 12:51:16.416138+00,2025-05-01 12:51:16.416138+00,,,,pending,false,false,
54bf9a77-4b37-d607-bba0-2c1f1bdfb61c,Lodge Eastern Suburbs No. 1050,lodge,Bondi Masonic Centre Pty Ltd,,,,,,2025-05-01 12:51:16.416138+00,2025-05-01 12:51:16.416138+00,,,,pending,false,false,
2fb16d00-cc7d-c708-2dc2-114f93a521ab,The Mountain Lodge No. 190,lodge,Bombala,,,,,,2025-05-01 12:51:16.416138+00,2025-05-01 12:51:16.416138+00,,,,pending,false,false,
e1c15cfc-4e85-abad-4abf-5d0e95fc695b,Lodge Corrective Services No. 1039,lodge,Blacktown Masonic Centre,,,,,,2025-05-01 12:51:16.416138+00,2025-05-01 12:51:16.416138+00,,,,pending,false,false,
ae15df78-946e-58a1-f68e-3ad8390bb817,Lodge Alpha No. 970,lodge,Blacktown Masonic Centre,,,,,,2025-05-01 12:51:16.416138+00,2025-05-01 12:51:16.416138+00,,,,pending,false,false,
ac114f83-925b-6cfb-a9be-d947b50640bc,Lodge Blacktown Kildare No. 393,lodge,Blacktown Masonic Centre,,,,,,2025-05-01 12:51:16.416138+00,2025-05-01 12:51:16.416138+00,,,,pending,false,false,
a42a97eb-1041-9bfa-ec49-7f61c8f349d8,Lodge Victoria Cross No. 928,lodge,Blacktown Masonic Centre,,,,,,2025-05-01 12:51:16.416138+00,2025-05-01 12:51:16.416138+00,,,,pending,false,false,
11c66ae7-763d-2a2a-d226-10415d997a84,Elysian Lodge No. 418,lodge,Blacktown Masonic Centre,,,,,,2025-05-01 12:51:16.416138+00,2025-05-01 12:51:16.416138+00,,,,pending,false,false,
85f7242d-0dd6-df38-2927-689fcc55e84d,Lodge Blackheath No. 370,lodge,Blackheath Masonic Centre,,,,,,2025-05-01 12:51:16.416138+00,2025-05-01 12:51:16.416138+00,,,,pending,false,false,
752b9463-7b32-4f70-be38-1a826bdec502,Lodge St George and St Andrew No. 7,lodge,Bexley Masonic Centre,,,,,,2025-05-01 12:51:16.416138+00,2025-05-01 12:51:16.416138+00,,,,pending,false,false,
4f35e764-6413-4a62-1438-4ce5638f7e5d,Lodge Rudyard Kipling No. 143,lodge,Bexley Masonic Centre,,,,,,2025-05-01 12:51:16.416138+00,2025-05-01 12:51:16.416138+00,,,,pending,false,false,
d89dd35f-1b87-a04f-6806-042a86b75bc0,Lodge Broughton No. 131,lodge,Berry Agricultural Hall (Meeting Place Only),,,,,,2025-05-01 12:51:16.416138+00,2025-05-01 12:51:16.416138+00,,,,pending,false,false,
a022eec8-5705-b37e-564e-7a595cf82233,Lodge Benjamin Pryor No. 709,lodge,Belmont Masonic Centre,,,,,,2025-05-01 12:51:16.416138+00,2025-05-01 12:51:16.416138+00,,,,pending,false,false,
02ed8316-d27b-0081-be2a-2329cf91a456,Lodge Bega Remembrance No. 220,lodge,Bega Masonic Centre,,,,,,2025-05-01 12:51:16.416138+00,2025-05-01 12:51:16.416138+00,,,,pending,false,false,
1706bd84-4b07-19c3-395e-9484a7e1576b,Batemans Bay Daylight Lodge No. 1013,lodge,Batemans Bay Soldiers Club (Meeting Place Only),,,,,,2025-05-01 12:51:16.416138+00,2025-05-01 12:51:16.416138+00,,,,pending,false,false,
dfdca006-2dc7-a8df-d8da-cb337036c0b4,Lodge Sutherland No. 585,lodge,Bankstown Masonic Centre (Padstow),,,,,,2025-05-01 12:51:16.416138+00,2025-05-01 12:51:16.416138+00,,,,pending,false,false,
d469e524-7ba1-0c7f-e542-0ee1d244bd09,Lodge Sir Joseph Banks No. 300,lodge,Bankstown Masonic Centre (Padstow),,,,,,2025-05-01 12:51:16.416138+00,2025-05-01 12:51:16.416138+00,,,,pending,false,false,
82f6afd1-c8bb-2ff5-79df-77106b943c86,Lodge Panania No. 845,lodge,Bankstown Masonic Centre (Padstow),,,,,,2025-05-01 12:51:16.416138+00,2025-05-01 12:51:16.416138+00,,,,pending,false,false,
54925597-3f16-2edb-6abd-05c9ffde4816,Lodge Oorana No. 1053,lodge,Bankstown Masonic Centre (Padstow),,,,,,2025-05-01 12:51:16.416138+00,2025-05-01 12:51:16.416138+00,,,,pending,false,false,
529d8c6e-1622-1a8a-0967-4bf44bf6c0d8,Bankstown Daylight Lodge No. 996,lodge,Bankstown Masonic Centre (Padstow),,,,,,2025-05-01 12:51:16.416138+00,2025-05-01 12:51:16.416138+00,,,,pending,false,false,
267eab71-3fbc-5e68-b487-6e2cb00fb9d5,Lodge Fire Brigades No. 940,lodge,Bankstown Masonic Centre (Padstow),,,,,,2025-05-01 12:51:16.416138+00,2025-05-01 12:51:16.416138+00,,,,pending,false,false,
1bfa4059-b75c-6614-20be-f9f5b93b6aa9,Lodge Ballina United No. 112,lodge,Ballina Masonic Centre,,,,,,2025-05-01 12:51:16.416138+00,2025-05-01 12:51:16.416138+00,,,,pending,false,false,
567b1662-4bfb-bc82-a0e1-63fee4214900,Lodge Phoenix No. 1034,lodge,Balgowlah,,,,,,2025-05-01 12:51:16.416138+00,2025-05-01 12:51:16.416138+00,,,,pending,false,false,
46542d9a-91dc-1f06-c53d-42c0b9d9fc6d,Lodge Balgowlah No. 392,lodge,Balgowlah,,,,,,2025-05-01 12:51:16.416138+00,2025-05-01 12:51:16.416138+00,,,,pending,false,false,
546fed7b-6530-a15c-e3b6-b459f2f6e089,The Sir Walter Scott Lodge No. 123,lodge,Auburn Masonic Hall,,,,,,2025-05-01 12:51:16.416138+00,2025-05-01 12:51:16.416138+00,,,,pending,false,false,
2a3066f8-6e27-5b80-4015-b7426fea0958,Lodge St David and St John No. 180,lodge,Auburn Masonic Hall,,,,,,2025-05-01 12:51:16.416138+00,2025-05-01 12:51:16.416138+00,,,,pending,false,false,
f9bbb0e7-ea33-adb1-1aa0-df4b56a7740d,Leinster Marine Lodge of Australia No. 2,lodge,Artarmon Masonic Hall,,,,,,2025-05-01 12:51:16.416138+00,2025-05-01 12:51:16.416138+00,,,,pending,false,false,
f5b1a1c5-61d7-ae8a-73fa-d7836f2c9d94,Lodge Kellerman No. 1027,lodge,Artarmon Masonic Hall,,,,,,2025-05-01 12:51:16.416138+00,2025-05-01 12:51:16.416138+00,,,,pending,false,false,
bd975789-1fbc-fe06-ade6-38db523b9698,Lodge Artarmon United No. 285,lodge,Artarmon Masonic Hall,,,,,,2025-05-01 12:51:16.416138+00,2025-05-01 12:51:16.416138+00,,,,pending,false,false,
7d97ac78-986b-f49d-1095-b35e54799064,Lodge Sir James Hardy No. 1046,lodge,Artarmon Masonic Hall,,,,,,2025-05-01 12:51:16.416138+00,2025-05-01 12:51:16.416138+00,,,,pending,false,false,
6893a52e-b96c-de81-0fdd-cb8081140639,Lodge Vaucluse No. 266,lodge,Artarmon Masonic Hall,,,,,,2025-05-01 12:51:16.416138+00,2025-05-01 12:51:16.416138+00,,,,pending,false,false,
28c3f630-87f2-7cd2-a810-e4f90f9a1514,Lodge Wyvern No. 813,lodge,Artarmon Masonic Hall,,,,,,2025-05-01 12:51:16.416138+00,2025-05-01 12:51:16.416138+00,,,,pending,false,false,
17b3b210-80a1-cc06-5a1c-03786118f874,Lodge Farrer No. 93,lodge,Albury Masonic Centre,,,,,,2025-05-01 12:51:16.416138+00,2025-05-01 12:51:16.416138+00,,,,pending,false,false,
fe135f3c-e02d-2e12-3338-27b86c50ce42,Collingwood Lodge No 96,lodge,,,,,,,2025-05-01 12:51:16.416138+00,2025-05-01 12:51:16.416138+00,,,,pending,false,false,
523af61c-f30c-45b1-d5cb-f71a0136642c,Melbourne Harmony Lodge No 506,lodge,,,,,,,2025-05-01 12:51:16.416138+00,2025-05-01 12:51:16.416138+00,,,,pending,false,false,
e5dbe1a4-27c4-80db-b2af-2eaab4db2bc3,Brisbane North Lodge No 202,lodge,,,,,,,2025-05-01 12:51:16.416138+00,2025-05-01 12:51:16.416138+00,,,,pending,false,false,
ad87dd9f-9934-34c4-f78f-5b96eb81787d,Queensland Research Lodge No 177,lodge,,,,,,,2025-05-01 12:51:16.416138+00,2025-05-01 12:51:16.416138+00,,,,pending,false,false,
7de2dee3-7d00-4fb3-3607-c8f6c2872d5c,Perth Lodge No 42,lodge,,,,,,,2025-05-01 12:51:16.416138+00,2025-05-01 12:51:16.416138+00,,,,pending,false,false,
e1a4909c-1abe-7da3-d3e9-acdd271c66eb,Hobart Lodge No 13,lodge,,,,,,,2025-05-01 12:51:16.416138+00,2025-05-01 12:51:16.416138+00,,,,pending,false,false,
1c1b8a83-df72-56d0-14ae-12d1d6b875fc,Auckland Lodge No 87,lodge,,,,,,,2025-05-01 12:51:16.416138+00,2025-05-01 12:51:16.416138+00,,,,pending,false,false,
0a632c89-798f-3f76-92cd-5d3d4aa764c8,Wellington Lodge No 21,lodge,,,,,,,2025-05-01 12:51:16.416138+00,2025-05-01 12:51:16.416138+00,,,,pending,false,false,
367bec85-fe0a-98fb-cb62-a290c4c2bf86,Manila Lodge No 1,lodge,,,,,,,2025-05-01 12:51:16.416138+00,2025-05-01 12:51:16.416138+00,,,,pending,false,false,
edf76cf1-73b4-18a9-9b1e-57912408ba9a,Tokyo Lodge No 2,lodge,,,,,,,2025-05-01 12:51:16.416138+00,2025-05-01 12:51:16.416138+00,,,,pending,false,false,
a78d4c49-bb99-40c3-e805-e3a255210aa2,Grand Stewards Lodge No 1,lodge,,,,,,,2025-05-01 12:51:16.416138+00,2025-05-01 12:51:16.416138+00,,,,pending,false,false,
63e80df8-8560-5834-8a1e-5744a8819e6f,Royal Somerset House and Inverness Lodge No 4,lodge,,,,,,,2025-05-01 12:51:16.416138+00,2025-05-01 12:51:16.416138+00,,,,pending,false,false,
dd931b67-9d70-5d97-53b9-a3f293ed43c7,First Lodge of Ireland No 1,lodge,,,,,,,2025-05-01 12:51:16.416138+00,2025-05-01 12:51:16.416138+00,,,,pending,false,false,
38fd87a9-a788-4d2c-9d1b-c5c22d346044,Jose Rizal Lodge No. 22,lodge,,,,,Philippines,,2025-06-08 18:29:06.020583+00,2025-06-08 18:29:06.020583+00,,,,pending,false,false,
adca62d0-cd63-4cae-a1b0-7fdb20354173,Bagong buhay lodge  No. 17,lodge,,,,,Philippines,,2025-06-09 03:40:48.22317+00,2025-06-09 03:40:48.22317+00,,,,pending,false,false,
6126bbff-4c97-4b9b-8d94-439a2ebb5e1b,The Lodge Of Transition No. 9999,lodge,,,,,,,2025-06-12 22:55:09.370201+00,2025-06-12 22:55:09.370201+00,,,,pending,false,false,
af772266-2c42-4ad9-98e9-230629b3ea7d,Grand Lodge of North Carolina,grandlodge,,,North Carolina,,United States,,2025-06-15 13:02:34.601204+00,2025-06-15 13:02:34.601204+00,GLNC,GLNC,,pending,false,false,
91bb677f-3e60-4ecd-a4de-1cb9dd808ff4,Grand Lodge of North Dakota,grandlodge,,,North Dakota,,United States,,2025-06-15 13:02:34.601204+00,2025-06-15 13:02:34.601204+00,GLND,GLND,,pending,false,false,
9aeda4ca-3be1-4c7a-b48a-d068d39c6641,Grand Lodge of Ohio,grandlodge,,,Ohio,,United States,,2025-06-15 13:02:34.601204+00,2025-06-15 13:02:34.601204+00,GLOH,GLOH,,pending,false,false,
38ec5644-5206-4082-99f1-2a33f617945a,Grand Lodge of Oklahoma,grandlodge,,,Oklahoma,,United States,,2025-06-15 13:02:34.601204+00,2025-06-15 13:02:34.601204+00,GLOK,GLOK,,pending,false,false,
63709117-f1a2-4167-859a-ce83553e1b6d,United Grand Lodge of Victoria,grandlodge,,,,,,,2025-05-01 12:51:16.416138+00,2025-05-01 12:51:16.416138+00,,,,pending,false,false,
af718ce5-b6d1-4f77-8e75-568def937622,Grand Lodge of Oregon,grandlodge,,,Oregon,,United States,,2025-06-15 13:02:34.601204+00,2025-06-15 13:02:34.601204+00,GLOR,GLOR,,pending,false,false,